OBJECTID,PropertyID,ParkType,ParkClass,Address,PostalCity,ZIPCode,Owner,Manager,ParkHours,AcresImproved,AcresUnimproved,ParkWebLink,IsPublicAccessible,Maplabel,GISAcres,Name,AltWebLink,RESTROOM,ADACOMPLY,PARKING,PAVED_TRAIL,UNPAVED_TRAIL,TRAILHEAD,COMMUNITY_CENTER,PICNIC,PLAYGROUND,DOG_PARK,BASEBALL,BASKETBALL,MULTIPURPOSE,GOLF,BEACH,FISHING,BOAT_LAUNCH,SKATE,TENNIS,BMX,CLIMBING,EQUESTRIAN,DISC_GOLF,ICE_RINK,QTR_MIDGET_TRACK,PARKSIZE,DESCRIPTION,VisibleInApp,Camping,SHAPE_Length,SHAPE_Area
1,28,Community Center,Special Use,9112 Lakewood Dr SW,Tacoma,98499,Pierce County,Pierce County Parks and Recreation Services,See website,3.63,0,https://www.co.pierce.wa.us/1305/Lakewood-Community-Center,1,Lakewood Community Center,3.63169297,Lakewood Community Center, ,Yes,No,Yes,No,No,No,Yes,No,No,No,No,Yes,No,No,No,No,No,No,No,No,No,No,No,No,No,3.71,"The Lakewood Community Center is a multipurpose center, that includes a college-sized gymnasium, meeting rooms, and the Lakewood Senior Activity Center.",Yes, ,1770.82690152149,158203.239595066
2,43,Rec Center,Regional,14824 S C ST,Tacoma,98444,Pierce County,Pierce County Parks and Recreation Services,See website,45,0,https://www.co.pierce.wa.us/1310/Sprinker-Recreation-Center,1,Sprinker Recreation Center,45.24461158,Sprinker Recreation Center, ,Yes,Yes,Yes,No,No,No,Yes,No,Yes,No,Yes,No,No,No,No,No,No,Yes,Yes,No,Yes,No,No,Yes,No,43.76,"Sprinker Recreation Center is part of Spanaway Regional Park, and includes many indoor and outdoor recreation facilities, including ice rink, raquet-sports and basketball courts, ballfields, and skatepark with many community activities.",Yes, ,5552.38947981996,1970848.68761006
3,55,Park,Local,10506 Russell Rd SW,Lakewood,98499,City of Lakewood,City of Lakewood,"7:30am - 9:00pm or sunset, whichever comes first",2,0,http://www.cityoflakewood.us/government/departments/parks-and-recreation/lakewood-parks,1,Active Park,2.35243351,Active Park, , , , , , , , , , , , , , , , , , , , , , , , , , ,0, ,No, ,1371.92145719958,102512.846187975
4,56,Park,Resource Conservancy,2917 Morrison Ave W,University Place,98466,City of University Place,City of University Place,Tuesday - Saturday 10 AM - 2:30 PM,0,2,http://www.tahomaaudubon.org/Default.aspx?pageId=30304,1,Adriana Hess Wetland Park,3.31693522,Adriana Hess Wetland Park, , , , , , , , , , , , , , , , , , , , , , , , , , ,0, ,No, ,1904.90193618059,144485.111215774
5,57,Park,Regional,50324 School Rd,Eatonville,98328,City of Tacoma,Tacoma Power,Dawn to Dusk,161,537,http://www.mytpu.org/tacomapower/parks-rec/alder-lake-park/Default.htm,1,Alder Lake Park,771.42612432,Alder Lake Park, ,Yes,Yes,Yes,No,No,No,No,Yes,No,No,No,No,No,No,Yes,Yes,Yes,No,No,No,No,No,No,No,No,0,"Tacoma Power's Alder Lake Park offers expansive campgrounds and access to Alder Lake (formed by Alder Dam) in Pierce County, Washington.",no,Yes,41986.423279471,33603206.7716725
6,58,Park,Local,208 Browns Point Blvd,Tacoma,98422,City of Tacoma,Metro Parks Tacoma,Dawn to Dusk,7,0,http://www.metroparkstacoma.org/alderwood-park,1,Alderwood Park,6.58836554,Alderwood Park, , , , , , , , , , , , , , , , , , , , , , , , , , ,0, ,No, ,2988.80992766811,286995.165519976
7,59,Park,Local,Regents Boulevard and Electron Way,Fircrest,98466,City of Fircrest,City of Fircrest,Dawn to Dusk,0.21,0, ,1,Alice Peers Park,0.12303662,Alice Peers Park, , , , , , , , , , , , , , , , , , , , , , , , , , ,0, ,No, ,432.966779518493,5359.45591151857
8,60,Park,Local,1134 S 60th St,Tacoma,98408,City of Tacoma,Metro Parks Tacoma,Dawn to Dusk,5,0,http://www.metroparkstacoma.org/alling-park,1,Alling Park,5.63042369,Alling Park, , , , , , , , , , , , , , , , , , , , , , , , , , ,0, ,No, ,2060.27753113904,245260.27936505
9,61,Park,Local,9222 Veterans Dr SW,Lakewood,98498,City of Lakewood,City of Lakewood,"7:30am - 9:00pm or sunset, whichever comes first",5,0,http://www.cityoflakewood.us/government/departments/parks-and-recreation/lakewood-parks,1,American Lake North Park,5.18756516,American Lake North Park, , , , , , , , , , , , , , , , , , , , , , , , , , ,0, ,No, ,1948.28206281528,225969.370178688
11,63,Playfield,Special Use,13005 Camus RD AI,Anderson Island,98303,Anderson Island Park District,Anderson Island Park District,7 am to 10:30 pm,0,40,http://www.andersonislandparks.org/Jane_Cammon_Park.html,1,Jane Cammon Park,40.63779604,Jane Cammon Park, , , , , , , , , , , , , , , , , , , , , , , , , , ,0, ,No, ,6596.58439710252,1770175.24426073
12,64,Park,Local,"4716 N Baltimore, N 47th St at N Baltimore St",Tacoma,98407,City of Tacoma,Metro Parks Tacoma,Dawn to Dusk,2,0,http://www.metroparkstacoma.org/baltimore-park,1,Baltimore Park,2.67861655,Baltimore Park, , , , , , , , , , , , , , , , , , , , , , , , , , ,0, ,No, ,1467.13885060818,116680.075470569
13,65,Park,Local,"7402 East D ST, E 72th Street at East D Street",Tacoma,98404,City of Tacoma,Metro Parks Tacoma,Dawn to Dusk,0,51.31,http://www.metroparkstacoma.org/charlottes-blueberry-park,1,Charlotte's Blueberry Park,51.21469555,Charlotte's Blueberry Park, , , , , , , , , , , , , , , , , , , , , , , , , , ,0, ,No, ,6645.21165409064,2230903.26819687
14,67,Park,Resource Conservancy,18200 74th St E,Bonney Lake,98391,City of Bonney Lake,City of Bonney Lake,Dawn to Dusk,0,2,http://www.ci.bonney-lake.wa.us/section_community/parks_recreation/city_parks.shtml#kensimmons,1,Ken Simmons Park,1.52345119,Ken Simmons Park, , , , , , , , , , , , , , , , , , , , , , , , , , ,0, ,No, ,1167.81652491759,66372.2710222223
16,69,Park,Local,7203 West Tapps Hwy E,Bonney Lake,98391,City of Bonney Lake,City of Bonney Lake,Dawn to Dusk,22,0,http://www.ci.bonney-lake.wa.us/section_community/parks_recreation/city_parks.shtml#maps,1,Allan Yorke Park,21.5796705,Allan Yorke Park, , , , , , , , , , , , , , , , , , , , , , , , , , ,0, ,No, ,5373.20889712434,940052.962831858
17,70,Park,Local,531 31st Avenue SE,Puyallup,98374,City of Puyallup,City of Puyallup,8 am to Dusk,59,0,http://www.cityofpuyallup.org/services/parks-recreation/city-puyallup-parks/bradley-lake-park/,1,Bradley Lake Park,57.75888202,Bradley Lake Park, , , , , , , , , , , , , , , , , , , , , , , , , , ,0, ,No, ,7768.81368015914,2515909.21557748
18,71,Park,Undeveloped Sites,6518 Valley Ave E,Fife,98424,City of Fife,City of Fife,"Not yet accessible to the public; Tentatively Opening 2014",0,17, ,1,Brookville Gardens Park,16.17052587,Brookville Gardens Park, , , , , , , , , , , , , , , , , , , , , , , , , , ,0, ,No, ,5266.33629580376,704358.074726609
19,72,Park,Resource Conservancy,1111 19th Ave SW,Puyallup,98371,City of Puyallup,City of Puyallup, ,0,17,http://www.cityofpuyallup.org/services/parks-recreation/city-puyallup-parks/community-garden-plots/,1,Community Garden Plots,15.00383064,Community Garden Plots, , , , , , , , , , , , , , , , , , , , , , , , , , ,0, ,No, ,3906.9515663208,653564.263158893
21,74,Park,Local,201 Tulalip Street NE,Tacoma,98422,City of Tacoma,Metro Parks Tacoma,Dawn to Dusk,5,0,http://www.metroparkstacoma.org/browns-point-lighthouse-park,1,Browns Point Lighthouse Park,4.35627292,Browns Point Lighthouse Park, , , , , , , , , , , , , , , , , , , , , , , , , , ,0, ,No, ,1747.22842127509,189758.496534372
22,75,Playfield,Local,4901 La-Ha-Da NE,Tacoma,98422,City of Tacoma,Metro Parks Tacoma,Dawn to Dusk,4,0,http://www.metroparkstacoma.org/browns-point-playfield,1,Browns Point Playfield,3.56789155,Browns Point Playfield, , , , , , , , , , , , , , , , , , , , , , , , , , ,0, ,No, ,2564.60387552897,155416.73103391
24,77,Park,Local,429 South 80TH ST,Tacoma,98408,City of Tacoma,Metro Parks Tacoma,Dawn to Dusk,5,0,http://www.metroparkstacoma.org/ryans-park-formerly-celebration-park,1,Ryan's Park,4.34052551,Ryan's Park, , , , , , , , , , , , , , , , , , , , , , , , , , ,0, ,No, ,1900.97759287043,189072.550041712
25,78,Park,Local,5411 23rd Street E,Fife,98424,City of Fife,City of Fife,Dawn to Dusk,0.36,0,http://cityoffife.org/?p=city_departments&a=parks_and_recreation&b=city_parks&c=centennial_park,1,Centennial Park,3.75542634,Centennial Park, , , , , , , , , , , , , , , , , , , , , , , , , , ,0, ,No, ,1651.03213939998,163585.709318546
26,79,Park,TBD,14404 Talmo Dr NW,Gig Harbor,98332,Pierce County,Pierce County Public Works Surface Water Management,Dawn to Dusk,0,0.9,http://www.co.pierce.wa.us/pc/services/recreate/fac-list.htm#C,1,Crescent Lake Park,0.86035194,Crescent Lake Park, , , , , , , , , , , , , , , , , , , , , , , , , , ,0, ,No, ,1526.23526427302,37484.0426122692
27,80,Park,County,21800 Meridian Ave E,Graham,98338,Pierce County,Pierce County Parks and Recreation Services,Dawn to Dusk / During special events and the Pierce County Fair new times for gate closures at Frontier Park go into effect.,54.35,10,https://www.co.pierce.wa.us/1321/Frontier-Park,1,Frontier Park,68.27458911,Frontier Park, ,Yes,Yes,Yes,No,Yes,No,Yes,Yes,Yes,No,No,No,No,No,No,No,No,No,No,No,No,Yes,No,No,Yes,71.4,"Frontier Park is a 71 acre complex on Meridian between Puyallup and Graham. The park is home to many uses, including the Pierce County Fair, Highland Games, equestrian shows, scouting events, car shows, quarter midget track racing, and other community events. ",Yes, ,9678.23877726741,2974029.17713074
28,82,Park,Regional,14905 Bresemann Blvd S (and Military Road S),Spanaway,98387,Pierce County,Pierce County Parks and Recreation Services,Dawn to Dusk (unless otherwise posted),68.13,0,https://www.co.pierce.wa.us/1336/Spanaway-Park,1,Spanaway Park,73.77275454,Spanaway Park, ,Yes,Yes,Yes,Yes,No,No,No,Yes,Yes,No,Yes,Yes,No,No,Yes,Yes,Yes,No,No,No,No,No,No,No,No,88.87,"This 89-acre park is part of Spanaway Regional Park. The Park follows the east shoreline of Spanaway Lake and includes swimming beaches, boat launch, picnic shelters, playground, walking paths, and year-round activities.",Yes, ,10799.5469848698,3213548.06415919
29,83,Park,Local,1605 90th St E,Tacoma,98445,Pierce County,Pierce County Parks and Recreation Services,Dawn to Dusk,5,0,https://www.co.pierce.wa.us/1319/Dawson-Playfield,1,Dawson Playfield,4.7773993,Dawson Playfield, ,Yes,Yes,Yes,No,Yes,No,No,Yes,Yes,No,Yes,Yes,No,No,No,No,No,No,Yes,No,No,No,No,No,No,5.05,"Dawson Playfield is a neighborhood park in the Midland community that includes a picnic shelter, playground, basketball and tennis courts, playfield, and walking path. ",Yes, ,2216.6273352255,208102.677474773
30,84,Rec Center,Local,4818 Nassau Ave NE,Tacoma,98422,City of Tacoma,Metro Parks Tacoma,Dawn to Dusk,18.72,0,http://www.metroparkstacoma.org/norpoint-park,1,Norpoint Park,17.50577324,Norpoint Park, , , , , , , , , , , , , , , , , , , , , , , , , , ,0, ,No, ,5091.24420172994,762529.114381582
31,85,Golf,Regional,6320 Grandview Drive West,University Place,98467,Pierce County,Kemper Sports,Check website for tee times,340.45,0,https://www.chambersbaygolf.com/,1,Chambers Bay Golf Course,349.36131292,Chambers Bay Golf Course, ,Yes,Yes,Yes,Yes,No,No,No,Yes,Yes,No,No,No,No,Yes,No,No,No,No,No,No,No,No,No,No,No,370.45,"Located near Tacoma in Pierce County, Washington, Chambers Bay is one of the top public courses in the nation and the first course in the Northwest to welcome the U.S. Open Championship.",Yes, ,19116.4766645451,15304719.8950257
32,86,Stadium,Special Use,2502 S Tyler St,Tacoma,98405,City of Tacoma,City of Tacoma, ,25.6,0,http://www.cityoftacoma.org/Page.aspx?hid=3052,1,Cheney Stadium,20.42330651,Cheney Stadium, , , , , , , , , , , , , , , , , , , , , , , , , , ,0, ,No, ,4077.80570823846,889592.480719893
33,87,Park,Resource Conservancy,1701 S Bennett,Tacoma,98465,City of Tacoma,Metro Parks Tacoma,Dawn to Dusk,27.23,0,http://www.metroparkstacoma.org/china-lake-park,1,China Lake,28.29368257,China Lake, , , , , , , , , , , , , , , , , , , , , , , , , , ,0, ,No, ,6575.33121085018,1232467.87739623
35,92,Park,Other,8714 Elwood Dr SW,Lakewood,98498,State of Washington,City of Lakewood,"7:30am - 9:00pm or sunset, whichever comes first",261.27,274.73,http://www.cityoflakewood.us/government/departments/parks-and-recreation/lakewood-parks,1,Fort Steilacoom Park,600.39167994,Fort Steilacoom Park, , , , , , , , , , , , , , , , , , , , , , , , , , ,0, ,No, ,34236.4663204441,26152773.3898609
36,93,Park,Local,7250 Cirque Dr W,University Place,98467,City of University Place,City of University Place,Dawn to Dusk (unless otherwise posted),26.87,0,http://cityofup.com/Media/file/ParksAndRec/WHERE%20ARE%20OUR%20PARKS%202011.pdf,1,Cirque/ Bridgeport Park,26.8768516,Cirque/ Bridgeport Park, , , , , , , , , , , , , , , , , , , , , , , , , , ,0, ,No, ,4851.16124203307,1170649.7666419
37,94,Golf,Regional,15602 Pacific Avenue South,Tacoma,98444,Pierce County,Pierce County Parks and Recreation Services,Dawn to Dusk (unless otherwise posted),145.29,0,http://www.lakespanawaygc.com/,1,Lake Spanaway Golf Course,145.29274222,Lake Spanaway Golf Course, ,Yes,Yes,Yes,No,No,No,No,No,No,No,No,No,No,Yes,No,No,No,No,No,No,No,No,No,No,No,128.8,"Lake Spanaway Golf Course is part of the Spanaway Regional Recreational Complex that also contains Bresemann Forest, Sprinkler Recreation Center and Spanaway Park. The course includes 18 holes, a clubhouse, and driving range.",Yes, ,11045.2099735391,6328906.73174672
38,95,Park,Local,13422 10th Ave S,Tacoma,98444,Pierce County,Pierce County Parks and Recreation Services,Dawn to Dusk,12.45,0,https://www.co.pierce.wa.us/1323/Gonyea-Play-Field,1,Gonyea Playfield,12.45160987,Gonyea Playfield, ,Yes,Yes,Yes,No,No,No,No,No,Yes,No,Yes,Yes,Yes,No,No,No,No,No,No,No,No,No,No,No,No,12.42,"This neighborhood playfield serves the Parkland community and includes multi-purpose baseball, softball and soccer fields with a playground, basketball courts, and restrooms.",Yes, ,3515.31860968813,542389.894069331
39,96,Park,County,29801 SR706,Ashford,98304,Pierce County,Pierce County Parks and Recreation Services,Dawn to Dusk,53,31,https://www.co.pierce.wa.us/1313/Ashford-County-Park,1,Ashford County Park,85.29522402,Ashford County Park,http://www.co.pierce.wa.us/xml/abtus/ourorg/parks/ashford/Ashford_Conceptual17-mod_1-2w.pdf,Yes,Yes,Yes,Yes,No,No,No,Yes,Yes,No,No,No,No,No,No,No,No,No,No,No,No,No,No,No,No,83.98,"This 80-acre park in along SR-706 in the community of Ashford includes trails, playground, great lawn, restrooms, and an outdoor amphitheater. ",Yes, ,8462.88424239651,3715445.11355066
40,98,Wildlife Habitat,Resource Conservancy,Tule Lake Rd S At Yakima Ave S,Tacoma,98444,Pierce County,Pierce County Parks and Recreation Services,Dawn to Dusk,5,3,https://www.co.pierce.wa.us/4759/Parkland-Prairie,1,Parkland Prairie Nature Preserve,7.96,Parkland Prairie Nature Preserve, ,No,Yes,No,Yes,Yes,No,No,No,No,No,No,No,No,No,No,No,No,No,No,No,No,No,No,No,No,7.96,This 4.5 acre preserve of Garry Oak open space property is located in the Parkland area. This property includes a nature trail and educational kiosk.,Yes, ,3526.36493361276,358364.054142626
42,100,Wildlife Habitat,Resource Conservancy,9112 Lakewood Drive SW,Lakewood,98499,Pierce County,Pierce County Parks and Recreation Services,Dawn to Dusk,0,46,http://www.co.pierce.wa.us/index.aspx?NID=1333,1,Seeley Lake Park,46.39982109,Seeley Lake Park, ,Yes,No,Yes,No,Yes,No,No,No,No,No,No,No,No,No,No,No,No,No,No,No,No,No,No,No,No,45.98,"Seeley Lake Park is a small park nestled between a busy street, retail stores, and an apartment complex. This 48-acre park includes a 1-mile soft-surface walking trail surrounding wetlands.",Yes, ,7791.5937290094,2021014.7466386
45,104,Park,Local,1502 Lucille Parkway NW,Gig Harbor,98335,Peninsula Metropolitan Park District,Peninsula Metropolitan Park District,7 am to dusk,35,,https://penmetparks.org/parks/narrows-park/,1,Narrows Park,36.10843748,Narrows Park, ,yes, ,yes,yes,, , ,yes, , , , , , ,yes,yes,yes, , , , , , , , ,35, ,No, ,7527.89794116534,1572949.09728911
46,105,Park,Unclassified,7800 Riverside Drive E,Sumner,98390,Pierce County,Pierce County Parks and Recreation Services,Dawn to Dusk,0,35,https://www.co.pierce.wa.us/1331/Riverside-Park-BMX,1,Riverside Park,36.67326994,Riverside Park,http://www.rivervalleybmxracing.com/,No,No,Yes,No,No,No,No,Yes,No,No,No,No,No,No,No,Yes,No,Yes,No,Yes,No,No,Yes,No,No,36.11,"Located at Riverside Road and 78th Street Court in Sumner, Riverside Park is an undeveloped 36-acre park along the Puyallup River with four disc golf courses, seasonal BMX concession, and a permit-use only boat slide.",Yes, ,6267.91503016369,1597464.00781431
47,106,Park,Local,58th St & 44th Ave E,Tacoma,98443,Pierce County,Pierce County Parks and Recreation Services,Dawn to Dusk,10,0,http://www.co.pierce.wa.us/5745/Lidford-Playfield,1,Lidford Playfield,9.73859521,Lidford Playfield, ,No,No,Yes,No,Yes,No,No,No,No,No,Yes,No,No,No,No,No,No,No,No,No,No,No,No,No,No,9.78,This neighbhorhood playfield serves the Summit-Waller community and includes a walking path and open lawn.,Yes, ,2605.50188981768,424211.529054247
49,108,Pier,Special Use,1453 Ozette Drive,Fox Island,98333,Peninsula Metropolitan Park District,Peninsula Metropolitan Park District,7 am to dusk,5.5,0,https://penmetparks.org/parks/fox-island-fishing-pier/,1,Fox Island Fishing Pier,9.67584825,Fox Island Fishing Pier, ,yes, ,yes,yes, , , ,yes, , , , , , ,yes,yes, , , , , , , , , ,5.5, ,No, ,4865.17426590087,421484.569302825
52,111,Wildlife Habitat,Regional,801 Military Road,Spanaway,98387,Pierce County,Pierce County Parks and Recreation Services,Dawn to Dusk,65,0,https://www.co.pierce.wa.us/1315/Bresemann-Forest,1,Bresemann Forest,61.69286512,Bresemann Forest, ,No,No,Yes,No,Yes,No,No,No,No,No,No,No,No,No,No,No,No,No,No,No,No,No,No,No,No,65.85,Bresemann Forest is part of Spanaway Regional Park and located adjacent to Sprinker Recreation Center. This urban forest includes nature trails. ,Yes, ,8483.05807238639,2687330.38646851
53,112,Park,Local,3507 Ray Nash Dr NW,Gig Harbor,98335,Peninsula Metropolitan Park District,Peninsula Metropolitan Park District,7 am to dusk,3.67,0,https://penmetparks.org/parks/hales-pass-park/,1,Hales Pass Park,4.0226101,Hales Pass Park, ,yes, ,, , , ,yes,yes, , ,yes, , , , , , , ,yes, , , , , , ,4, ,No, ,1948.11283619153,175224.209433311
54,113,Park,Local,Brierhill Blvd & Roosevelt Rd,Wilkeson,98396,Town of Wilkeson,Town of Wilkeson,Dawn to Dusk,1.81,0, ,1,City Park - Wilkeson,1.8216738,City Park - Wilkeson, , , , , , , , , , , , , , , , , , , , , , , , , , ,0, ,No, ,1450.07727144163,79351.8213857045
55,114,Park,Local,205 Barksdale Ave,DuPont,98327,City of DuPont,City of DuPont,Dawn to Dusk,0.338,0,http://www.ci.dupont.wa.us/public-works/parks-recreation/city-parks.html,1,Robinson Park,0.33816288,Robinson Park, , , , , , , , , , , , , , , , , , , , , , , , , , ,0, ,No, ,595.640500018764,14730.3109197126
56,115,Park,Local,1700 12th Ave Sw,Puyallup,98371,City of Puyallup,City of Puyallup,8 am to Dusk,16.82,0,http://www.cityofpuyallup.org/services/parks-recreation/city-puyallup-parks/clarks-creek-park/,1,Clarks Creek Park North,16.81902615,Clarks Creek Park North, , , , , , , , , , , , , , , , , , , , , , , , , , ,0, ,No, ,4231.94360399419,732633.819561393
59,118,Park,Local,1635 E 59TH ST,Tacoma,98404,City of Tacoma,Metro Parks Tacoma,Dawn to Dusk,2.21,0,http://www.metroparkstacoma.org/cloverdale-park,1,Cloverdale Park,2.21323528,Cloverdale Park, , , , , , , , , , , , , , , , , , , , , , , , , , ,0, ,No, ,1590.35081625505,96408.1217060666
60,119,Park,Undeveloped Sites,35th St W & Crestview Drive West,University Place,98466,City of University Place,City of University Place,Dawn to Dusk,0,12,http://cityofup.com/Media/file/ParksAndRec/Park%20location_descript%202011.pdf,1,Colegate Park,11.84409573,Colegate Park, , , , , , , , , , , , , , , , , , , , , , , , , , ,0, ,No, ,4617.36967406908,515926.763939471
61,120,Park,Local,Bridgeport Way W and Chambers Lane West,University Place,98467,City of University Place,City of University Place,"7 Days a week, daylight hours",0.56,0,http://cityofup.com/Media/file/ParksAndRec/Park%20location_descript%202011.pdf,1,Conservation Park,0.51884982,Conservation Park, , , , , , , , , , , , , , , , , , , , , , , , , , ,0, ,No, ,955.085445219065,22641.255004004
62,122,Park,Local,3939 Ruston Way,Tacoma,98402,City of Tacoma,Metro Parks Tacoma,Dawn to Dusk,3.8424,0,http://www.metroparkstacoma.org/cummings-park,1,Cummings Park,3.84072402,Cummings Park, , , , , , , , , , , , , , , , , , , , , , , , , , ,0, ,No, ,1971.57077119919,167301.265699135
63,123,Park,Local,4009 Curran Lane West,University Place,98466,City of University Place,City of University Place,Dawn to Dusk (unless otherwise posted),7.33,0,http://cityofup.com/Media/file/ParksAndRec/WHERE%20ARE%20OUR%20PARKS%202011.pdf,1,Curran Apple Orchard,7.02080221,Curran Apple Orchard, , , , , , , , , , , , , , , , , , , , , , , , , , ,0, ,No, ,2428.01911558794,305841.023056862
64,124,Park,TBD,10015 Sunrise Beach Drive NW,Gig Harbor,98332,Peninsula Metropolitan Park District,Peninsula Metropolitan Park District,Dawn to Dusk,89,80,http://www.co.pierce.wa.us/pc/abtus/ourorg/parks/Sunrise.htm,1,Sunrise Beach / Doc Weathers Park,88.72396672,Sunrise Beach / Doc Weathers Park, , , , , , , , , , , , , , , , , , , , , , , , , , ,0, ,No, ,20599.3215144663,3864888.90979138
65,125,Park,Local,13510 13th AVCT E,Parkland,98445,Pierce County,Pierce County Parks and Recreation Services,Dawn to Dusk,4.87,4,https://www.co.pierce.wa.us/4889/Mayfair-Playfield,1,Mayfair Playfield,4.90172981,Mayfair Playfield, ,No,No,Yes,No,No,No,No,No,Yes,No,No,No,No,No,No,No,No,No,No,No,No,No,No,No,No,4.58,This neighborhood playfield serves the Parkland community and is located along Clover Creek. The park includes a playground and open lawn.,Yes, ,2258.71189401073,213518.475048974
67,131,Trail,Linear Park,"Kimball Dr At Hunt St, Reed Rd & 28th St",Gig Harbor,98335,Tacoma Public Utilities,Peninsula Metropolitan Park District,Dawn to Dusk,31.91,0,https://penmetparks.org/parks/cushman-powerline-trail/,1,Cushman Powerline Trail,52.81122182,Cushman Powerline Trail, ,yes, ,yes,yes, , , , , , , , , , , , , , , , , , , , , ,0, ,No, ,46751.5501683462,2300450.08490637
68,132,Park,Resource Conservancy,N/A,Gig Harbor,98335,State of Washington,Washington State Parks,8 am to Dusk,0,5.5,http://www.parks.wa.gov/parks/?selectedpark=Cutts%20Island&subject=all,1,Cutts Island State Park,5.29886629,Cutts Island State Park, , , , , , , , , , , , , , , , , , , , , , , , , , ,0, ,No, ,2312.89692594009,230817.693861422
69,135,Park,Local,5604 Graham Street,Sumner,98390,City of Sumner,City of Sumner,8 am to 10 pm,6.96,0,http://www.ci.sumner.wa.us/Living/Daffodil_Valley.htm,1,Daffodil Valley Sports Complex,6.69923382,Daffodil Valley Sports Complex, , , , , , , , , , , , , , , , , , , , , , , , , , ,0, ,No, ,2250.15962545497,291803.722806891
70,136,Park,Local,1425 Beach Drive NE,Tacoma,98422,City of Tacoma,Metro Parks Tacoma,Dawn to Dusk,2.9234,0,http://www.metroparkstacoma.org/dash-point-park,1,Dash Point Park,2.89460295,Dash Point Park, , , , , , , , , , , , , , , , , , , , , , , , , , ,0, ,No, ,2444.83841280557,126088.421148963
71,137,Park,Regional,5700 SW Dash Point Road,Federal Way,98023,State of Washington,Washington State Parks,8 am to Dusk,398,168.16,http://www.parks.wa.gov/parks/?selectedpark=Dash%20Point&subject=all,1,Dash Point State Park,169.10322641,Dash Point State Park,http://www.parks.wa.gov/plans/dash-saltwater/, , , , , , , , , , , , , , , , , , , , , , , , , ,0, ,No, ,17736.1511546494,7366122.20808878
72,140,Park,Local,1800 7th Ave Sw,Puyallup,98371,City of Puyallup,City of Puyallup,8 am to Dusk,8.12,0,http://www.cityofpuyallup.org/services/parks-recreation/city-puyallup-parks/decoursey-park/,1,DeCoursey Park,7.24037302,DeCoursey Park, , , , , , , , , , , , , , , , , , , , , , , , , , ,0, ,No, ,2583.33803171231,315332.83938887
73,141,Park,Local,4700 S 12th St,Tacoma,98405,City of Tacoma,Metro Parks Tacoma,Dawn to Dusk,10.48,0,http://www.metroparkstacoma.org/delong-park,1,DeLong Park,21.44999669,DeLong Park, , , , , , , , , , , , , , , , , , , , , , , , , , ,0, ,No, ,5431.29533516925,934370.715642264
74,144,Rec Area,TBD,Skansie Ave,Gig Harbor,98332,Peninsula Metropolitan Park District,Peninsula Metropolitan Park District, ,14.92,0, ,1,Peninsula Recreation Area,14.92073847,Peninsula Recreation Area, , , , , , , , , , , , , , , , , , , , , , , , , , ,0, ,No, ,3320.7123806806,650028.34416219
78,150,Park,Local,2423 Ruston Way,Tacoma,98402,City of Tacoma,Metro Parks Tacoma,Dawn to Dusk,8.79,0,http://www.metroparkstacoma.org/dickman-mill-park,1,Dickman Mill Park,8.79915417,Dickman Mill Park, , , , , , , , , , , , , , , , , , , , , , , , , , ,0, ,No, ,2971.93157979694,383230.174930798
79,153,Rec Center,Special Use,3537 E K St,Tacoma,98404,City of Tacoma,Metro Parks Tacoma,Dawn to Dusk,7.29,0,http://www.metroparkstacoma.org/eastside-pool,1,Eastside Pool,7.28402722,Eastside Pool, , , , , , , , , , , , , , , , , , , , , , , , , , ,0, ,No, ,3575.3406778609,317290.965394034
80,155,Park,Local,11001 24th Street E,Edgewood,98372,City of Edgewood,City of Edgewood,Dawn to Dusk,4.72,0,http://www.cityofedgewood.org/depts/parks/parks.htm,1,Edgemont Park,4.33117719,Edgemont Park, , , , , , , , , , , , , , , , , , , , , , , , , , ,0, ,No, ,1871.41340122254,188665.304791236
81,156,Park,Local,9102 Edgewater Drive SW,Lakewood,98499,City of Lakewood,City of Lakewood,"7:30am - 9:00pm or sunset, whichever comes first",1,0,http://www.cityoflakewood.us/government/departments/parks-and-recreation/lakewood-parks,1,Edgewater Park,2.82766775,Edgewater Park, , , , , , , , , , , , , , , , , , , , , , , , , , ,0, ,No, ,2080.7821115162,123152.76613396
84,163,Park,County,4418 Military Road East,Tacoma,98446,Pierce County,Pierce County Parks and Recreation Services,Dawn to Dusk,4,60,https://www.co.pierce.wa.us/6967/Cross-Park,1,Cross Park,61.57230146,Cross Park, ,Yes,Yes,Yes,Yes,,,Yes,Yes,Yes,No,No,No,No,No,No,No,No,No,No,No,No,No,No,No,No,64.03, ,Yes,No,10423.6044752166,2682078.74145104
86,165,Trail,Linear,9201 136th St E,Puyallup,98373,Pierce County,Pierce County Parks and Recreation Services,Dawn to Dusk (unless otherwise posted),1.629,0,http://www.co.pierce.wa.us/pc/abtus/ourorg/parks/SHillPark.htm#Nathan Chapman Memorial Trail,1,Nathan Chapman Memorial Trail,1.62952069,Nathan Chapman Trail, ,No,Yes,Yes,Yes,No,No,No,No,No,No,No,No,No,No,No,No,No,No,No,No,No,No,No,No,No,1.56,"The Nathan Chapman Memorial Trail cuts through woods and wetlands, joining South Hill Community Park with Heritage Recreation Center, a public athletic complex. The trail is a wide, paved route that connects to a loop trail at South Hill Community Park.",Yes, ,2500.20358328451,70961.8620332668
89,169,Community Center,County,14422 Meridian East,Puyallup,98375,Pierce County,Pierce County Parks and Recreation Services,Hours vary call Cara at 253-841-8515,31.75,0,https://www.co.pierce.wa.us/1329/Meridian-Habitat-Park-Community-Center,1,Meridian Habitat Park,36.39038688,Meridian Habitat Park, ,Yes,Yes,Yes,No,No,No,Yes,Yes,Yes,No,No,No,No,No,No,No,No,No,No,No,No,No,No,No,No,35.67,"Known to locals as the Amphitheatre, Meridian Habitat Park is a 36-acre park that includes a community center, nature playground, dog park, amphitheater, walking paths, and a variety of wildlife habitat.",Yes, ,5186.41080181401,1585158.91666247
92,173,Wildlife Habitat,Resource Conservancy,Chambers Street & Beech Street,Steilacoom,98388,Town of Steilacoom,Town of Steilacoom,Dawn to Dusk,0,64,http://www.townofsteilacoom.com/activities/parks_recreation.htm#farrells_marsh,1,Farrells Marsh Park,60.33764245,Farrells Marsh Park, , , , , , , , , , , , , , , , , , , , , , , , , , ,0, ,No, ,6806.17742146358,2628297.19221768
93,174,Park,Local,502 South 88TH Street,Tacoma,98444,City of Tacoma,Metro Parks Tacoma,Dawn to Dusk,2.02,0,http://www.metroparkstacoma.org/fern-hill-park,1,Fern Hill,2.00509598,Fern Hill, , , , , , , , , , , , , , , , , , , , , , , , , , ,0, ,No, ,1394.9088274754,87341.6384189497
94,176,Community Center,Special Use,2111 54th Avenue E,Fife,98424,City of Fife,City of Fife,"M-F, 8:30am-5:00pm",0.6543,0,http://cityoffife.org/?p=city_departments&a=parks_and_recreation,1,Fife Community Center,0.65371032,Fife Community Center, , , , , , , , , , , , , , , , , , , , , , , , , , ,0, ,No, ,774.970630720931,28475.5121926184
95,178,Rec Center,Special Use,5410 20th Street E,Fife,98424,City of Fife,City of Fife,"M-F, 6AM-9PMSat, 10AM-3PM",1.36,0,http://cityoffife.org/?p=city_departments&a=parks_and_recreation&b=fife_swim_center,1,Fife Swim Center,2.0778925,Fife Swim Center, , , , , , , , , , , , , , , , , , , , , , , , , , ,0, ,No, ,1371.87289415404,90512.6493530338
96,179,Park,Local,471 Electron Way,Tacoma,98466,City of Fircrest,City of Fircrest,Dawn to Dusk (unless otherwise posted),7.35,0, ,1,Fircrest Park,7.64503054,Fircrest Park, , , , , , , , , , , , , , , , , , , , , , , , , , ,0, ,No, ,2768.15933168519,333010.74129178
97,180,Park,Local,120 Ramsdell St,Fircrest,98466,City of Fircrest,City of Fircrest,Dawn to Dusk,0,1.07, ,1,Fircrest Tot Lot,1.05400972,Fircrest Tot Lot, , , , , , , , , , , , , , , , , , , , , , , , , , ,0, ,No, ,1255.03823942478,45918.9659454268
98,182,Park,Local,803 A Street,Tacoma,98402,City of Tacoma,Metro Parks Tacoma,Dawn to Dusk,1.79,0,http://www.metroparkstacoma.org/firemans-park,1,Fireman's Park- Metro,1.53174846,Fireman's Park ( Metro ), , , , , , , , , , , , , , , , , , , , , , , , , , ,0, ,No, ,2056.69127782558,66742.535932874
101,188,Park,Local,2001 54th Avenue,Fife,98424,City of Fife,City of Fife,Dawn to Dusk,0.7713,0, ,1,Fountain Memorial Park,0.81348867,Fountain Memorial Park, , , , , , , , , , , , , , , , , , , , , , , , , , ,0, ,No, ,760.025127464022,35435.4247869686
102,189,Park,Local,1201 Puget Sound,Tacoma,98405,City of Tacoma,Metro Parks Tacoma,Dawn to Dusk,23.08,0,http://www.metroparkstacoma.org/franklin-park,1,Franklin Park,19.91144975,Franklin Park,http://www.metroparkstacoma.org/page.php?id=660, , , , , , , , , , , , , , , , , , , , , , , , , ,0, ,No, ,5051.14589378279,867339.279356988
103,190,Park,Local,400 North Borough Road,Tacoma,98403,City of Tacoma,Metro Parks Tacoma,Dawn to Dusk,12.6,0,http://www.metroparkstacoma.org/garfield-park,1,Garfield Park,11.46342626,Garfield Park, , , , , , , , , , , , , , , , , , , , , , , , , , ,0, ,No, ,4708.70858938579,499310.217672708
104,191,Park,Local,525 SR 161 South,Eatonville,98328,Town of Eatonville,Town of Eatonville,Dawn to Dusk,39.98,0,http://www.eatonville-wa.gov/smallwood,1,George Smallwood Park,15.51620599,George Smallwood Park, , , , , , , , , , , , , , , , , , , , , , , , , , ,0, ,No, ,6226.96697929142,675850.786969084
105,192,Park,Undeveloped Sites,3488 Grandview St,Gig Harbor,98332,City of Gig Harbor,City of Gig Harbor,Dawn to Dusk,0,9.57,http://www.cityofgigharbor.net/page.php?id=699,1,Grandview Forest Park,9.61191904,Grandview Forest Park, , , , , , , , , , , , , , , , , , , , , , , , , , ,0, ,No, ,2589.2063941387,418693.470153277
106,193,Park,Local,3303 Vernhardson St,Gig Harbor,98332,City of Gig Harbor,City of Gig Harbor,Dawn to Dusk,5.84,0,http://www.cityofgigharbor.net/page.php?id=699,1,City Park at Crescent Creek,5.95209335,City Park at Crescent Creek, , , , , , , , , , , , , , , , , , , , , , , , , , ,0, ,No, ,2421.09922649459,259272.123037942
107,194,Park,Local,209 Fir Avenue North,Eatonville,98328,Town of Eatonville,Town of Eatonville,Dawn to Dusk,1.56,0,http://www.eatonville-wa.gov/glacier,1,Glacier View Park,1.6076852,Glacier View Park, , , , , , , , , , , , , , , , , , , , , , , , , , ,0, ,No, ,2135.17901838955,70030.5011677085
108,195,Park,Local,601 North Meridian,Puyallup,98372,City of Puyallup,City of Puyallup,8 am to Dusk,2.3383,0,http://www.cityofpuyallup.org/services/parks-recreation/city-puyallup-parks/grayland-park/,1,Grayland Park,2.35927162,Grayland Park, , , , , , , , , , , , , , , , , , , , , , , , , , ,0, ,No, ,1384.53858863846,102769.449211366
109,197,Park,Local,2321 Ruston Way,Tacoma,98407,City of Tacoma,Metro Parks Tacoma,Dawn to Dusk,3.14,0,http://www.metroparkstacoma.org/hamilton-park,1,Hamilton Park,2.38476833,Hamilton Park, , , , , , , , , , , , , , , , , , , , , , , , , , ,0, ,No, ,1323.38352645049,103880.098775363
110,198,Beach,Unclassified,Goodrich Dr NW and SR 302,Purdy,98329,Pierce County,Pierce County Parks and Recreation Services,Dawn to Dusk,0,7.5,https://www.co.pierce.wa.us/3947/Purdy-Sand-Spit,1,Purdy Sand Spit,67.39233489,Purdy Sand Spit, ,No,No,Yes,No,No,No,No,No,No,No,No,No,No,No,Yes,Yes,Yes,No,No,No,No,No,No,No,No,63.97,The Purdy Sand Spit is an unimproved waterfront public area that runs right along SR 302. Its 7.5 acres includes a boat launch. A great place to see waterfowl such as sea gulls and blue heron.,Yes, ,17690.2092425034,2935604.07401058
111,200,Park,Local,8928 N Thorne Ln SW,Lakewood,98498,City of Lakewood,City of Lakewood,"7:30am - 9:00pm or sunset, whichever comes first",17,0,http://www.cityoflakewood.us/government/departments/parks-and-recreation/lakewood-parks,1,Harry Todd Park,17.11935225,Harry Todd Park, , , , , , , , , , , , , , , , , , , , , , , , , , ,0, ,No, ,4343.48366171401,745621.243936144
112,201,Park,Local,1902 S Tyler St,Tacoma,98405,City of Tacoma,Metro Parks Tacoma,Dawn to Dusk | Special arrangement can be made for leagues.,22.28,0,http://www.metroparkstacoma.org/heidelberg-davis-athletic-complex,1,Heidelberg Davis Park,34.47449886,Heidelberg Davis Park, , , , , , , , , , , , , , , , , , , , , , , , , , ,0, ,No, ,9052.85411365181,1501709.32378659
113,203,Park,Local,600 19th Av,Milton,98354,City of Milton,City of Milton,Dawn to Dusk (unless otherwise posted),1.8905,0,http://www.cityofmilton.net/page.php?id=95,1,Hill Tower Park,1.88126477,Hill Tower Park, , , , , , , , , , , , , , , , , , , , , , , , , , ,0, ,No, ,1147.49544176683,81947.5601826392
114,205,Park,Local,3761 Bridgeport Way West,University Place,98466,City of University Place,City of University Place,Dawn to Dusk,4.88,0,http://cityofup.com/Media/file/ParksAndRec/Park%20location_descript%202011.pdf,1,Homestead Park,4.92039164,Homestead Park, , , , , , , , , , , , , , , , , , , , , , , , , , ,0, ,No, ,2696.87810718837,214355.213266817
115,206,Trail,Linear Park,12TH ST E,Tacoma,98424,City of Milton,City of Milton,Dawn to Dusk (unless otherwise posted),0,12.16,http://cityofmilton.net/page.php?id=96,1,Interurban Trail - Milton,17.35956949,Interurban Trail - Milton, , , , , , , , , , , , , , , , , , , , , , , , , , ,0, ,No, ,15962.8146824398,756427.621954402
116,207,Park,Resource Conservancy,6125 8th St E,Fife,98424,City of Fife,City of Fife,Dawn to Dusk (unless otherwise posted),0,16.41, ,1,Hylebos Nature Area,16.71020481,Hylebos Nature Area, , , , , , , , , , , , , , , , , , , , , , , , , , ,0, ,No, ,4379.45446071683,727833.356601671
117,208,Trail,Linear Park,508 7th Ave,Milton,98354,City of Milton,City of Milton,Dawn to Dusk (unless otherwise posted),0,6.84,http://www.cityofmilton.net/page.php?id=96,1,Interurban Trail - Hylebos Overlook,6.83617918,Interurban Trail - Hylebos Overlook, , , , , , , , , , , , , , , , , , , , , , , , , , ,0, ,No, ,2457.43851495367,297782.822830215
118,209,Trail,Linear Park,11409 Jovita Blvd E,Edgewood,98372,City of Edgewood,City of Edgewood,Dawn to Dusk (unless otherwise posted),0,1.4472, ,1,Interurban Trail - Edgewood,22.10668951,Interurban Trail - Edgewood, , , , , , , , , , , , , , , , , , , , , , , , , , ,0, ,No, ,19747.4942867359,962883.274978538
119,210,Park,Local,1902 S 25th St,Tacoma,98405,City of Tacoma,Metro Parks Tacoma,Dawn to Dusk,4.318,0,http://www.metroparkstacoma.org/irving-park,1,Irving Park,4.31746877,Irving Park, , , , , , , , , , , , , , , , , , , , , , , , , , ,0, ,No, ,2453.00529709281,188108.451348509
120,212,Park,Local,1743 N Schuster Pkwy,Tacoma,98402,City of Tacoma,Metro Parks Tacoma,Dawn to Dusk,11.56,0,http://www.metroparkstacoma.org/jack-hyde-park,1,Jack Hyde Park on Commencement Bay,11.01022331,Jack Hyde Park on Commencement Bay, , , , , , , , , , , , , , , , , , , , , , , , , , ,0, ,No, ,5102.00499452787,479654.10870064
121,213,Park,Local,4825 N 39th St,Tacoma,98407,City of Tacoma,Metro Parks Tacoma,Dawn to Dusk,6.3593,0,http://www.metroparkstacoma.org/jane-clark-park,1,Jane Clark Park,6.42564622,Jane Clark Park, , , , , , , , , , , , , , , , , , , , , , , , , , ,0, ,No, ,2266.34992531965,279900.059243765
122,214,Park,Local,801 N Mason Ave,Tacoma,98406,City of Tacoma,Metro Parks Tacoma,Dawn to Dusk,14.2,0,http://www.metroparkstacoma.org/jefferson-park,1,Jefferson Park,13.76316102,Jefferson Park, , , , , , , , , , , , , , , , , , , , , , , , , , ,0, ,No, ,3517.45267622081,599520.880950871
123,215,Pier,Local,3207 HARBORVIEW DR,Gig Harbor,98335,City of Gig Harbor,City of Gig Harbor,Dawn to Dusk (unless otherwise posted),14.2,0,http://www.cityofgigharbor.net/page.php?id=699,1,Jerisich Dock & Skansie Brothers Park,2.1391134,Jerisich Dock & Skansie Brothers Park, , , , , , , , , , , , , , , , , , , , , , , , , , ,0, ,No, ,2026.42551829466,93179.4257423213
124,216,Park,Regional,30TH ST KS,Lakebay,98349,State of Washington,Washington State Parks,Summer: 8 a.m. to 9:30 p.m. | Winter: 8 a.m. to 6:30 p.m.,0,122,http://www.parks.wa.gov/parks/?selectedpark=Joemma%20Beach&subject=all,1,Joemma Beach State Park,119.81843816,Joemma Beach State Park, ,Yes,Yes,Yes,No,Yes,No,No,Yes,No,No,No,No,No,No,Yes,Yes,Yes,No,No,No,No,No,No,No,No,160,"Set on Key Peninsula in the middle of South Puget Sound, Joemma Beach is a quick boat ride or a beautiful drive from Olympia, Tacoma and the shoreline communities in between.",no,Yes,12548.4779367821,5219270.3243069
125,217,Park,Local,2323 N Shirley St,Tacoma,98407,City of Tacoma,Metro Parks Tacoma,Dawn to Dusk,10.6,0,http://www.metroparkstacoma.org/kandlepark,1,Kandle Playfield and Park,10.57087835,Kandle Playfield and Park, , , , , , , , , , , , , , , , , , , , , , , , , , ,0, ,No, ,2716.83860551134,460465.596292078
126,218,Park,Local,6002 Fairlawn Drive SW,Lakewood,98499,City of Lakewood,City of Lakewood,"7:30am - 9:00pm or sunset, whichever comes first",0,2.99,http://www.cityoflakewood.us/government/departments/parks-and-recreation/lakewood-parks,1,Kiwanis Park,2.96837212,Kiwanis Park, , , , , , , , , , , , , , , , , , , , , , , , , , ,0, ,No, ,1581.92552934752,129239.18591355
127,219,Park,Resource Conservancy,6420 Chambers Creek Rd W,University Place,98467,City of University Place,City of University Place,Dawn to Dusk (unless otherwise posted),5.53,0,http://cityofup.com/Media/file/ParksAndRec/WHERE%20ARE%20OUR%20PARKS%202011.pdf,1,Kobayashi Park,5.64226355,Kobayashi Park, , , , , , , , , , , , , , , , , , , , , , , , , , ,0, ,No, ,2303.25884349384,245774.171509171
128,220,Park,Resource Conservancy,11101 56TH ST NW,Gig Harbor,98335,State of Washington,Washington State Parks,"Summer: 8 a.m. to dusk. | Winter: 8 a.m. to dusk; day use only.",0,109,http://www.parks.wa.gov/parks/?selectedpark=Kopachuck&subject=all,1,Kopachuck State Park,103.89755233,Kopachuck State Park, ,Yes,Yes,Yes,No,Yes,Yes,No,Yes,No,No,No,No,No,No,Yes,Yes,No,No,No,No,No,No,No,No,No,280,"Snug in the curve of Carr Inlet a half-hour from Tacoma, Kopachuck State Park is an easy jaunt from South Puget Sound and the Kitsap Peninsula, and a lovely stop on an outing to Gig Harbor.",no,No,15404.5817305751,4525775.97364776
129,221,Park,Local,702 Calistoga St W,Orting,98360,City of Orting,City of Orting,Dawn to Dusk (unless otherwise posted),7.931607,0, ,1,Calistoga Place Park,6.46910601,Calistoga Place Park, , , , , , , , , , , , , , , , , , , , , , , , , , ,0, ,No, ,3063.54489198938,281804.969717947
130,223,Playfield,Local,2102 S 14th St,Tacoma,98405,City of Tacoma,Metro Parks Tacoma,Dawn to Dusk,9.4,0,http://www.metroparkstacoma.org/peck-field,1,Peck Field,9.18795377,Peck Field, , , , , , , , , , , , , , , , , , , , , , , , , , ,0, ,No, ,4282.98390559287,400195.661200298
131,224,Park,Regional,321 158th Avenue KPS,Lakebay,98349,State of Washington,Washington State Parks,Summer: 8 a.m. to dusk. | Winter: Day-use area is open 8 a.m. to dusk,149.68504,0,http://www.parks.wa.gov/parks/?selectedpark=Penrose%20Point&subject=all,1,Penrose Point State Park,160.18117797,Penrose Point State Park, , , , , , , , , , , , , , , , , , , , , , , , , , ,0, ,No, ,22513.5973664007,6977464.11478177
132,225,Rec Center,Local,1602 Martin Luther King Jr Way,Tacoma,98405,City of Tacoma,Metro Parks Tacoma,Hours vary - see www.metroparkstacoma.org,0.6342,0,http://www.metroparkstacoma.org/page.php?id=48,1,People's Neighborhood Resource Center,1.6464625,People's Neighborhood Resource Center, , , , , , , , , , , , , , , , , , , , , , , , , , ,0, ,No, ,1159.76103388233,71719.610107262
133,226,Park,Local,900 S K ST,Tacoma,98405,City of Tacoma,Metro Parks Tacoma,Dawn to Dusk,2,0,http://www.metroparkstacoma.org/peoples-park,1,Peoples Park,1.68717792,Peoples Park, , , , , , , , , , , , , , , , , , , , , , , , , , ,0, ,No, ,1159.96485722025,73493.163171056
134,228,Park,Local,324 South Meridian,Puyallup,98371,City of Puyallup,City of Puyallup,May 1-Sep 30 - 6 am - 10 pmOct 1-Apr 30 - 6 am - 8 pm,2,0,http://www.cityofpuyallup.org/services/parks-recreation/city-puyallup-parks/pioneer-park/,1,Pioneer Park,3.17387323,Pioneer Park, , , , , , , , , , , , , , , , , , , , , , , , , , ,0, ,No, ,1543.40509301393,138253.378951673
135,229,Park,Regional,5400 N Pearl St,Tacoma,98407,City of Tacoma,Metro Parks Tacoma,Dawn to Dusk,647.858,0,http://www.metroparkstacoma.org/point-defiance-park,1,Point Defiance,732.91572357,Point Defiance, ,Yes,Yes,Yes,Yes,Yes,Yes,No,Yes,Yes,Yes,No,No,No,No,Yes,Yes,No,No,No,No,No,No,No,No,No,760,"This 760-acre park is a popular destination for more than 3.1 million people each year. Natural forest, saltwater beaches and spectacular views offer numerous possibilities for recreation, education and communing with nature.",no,No,30125.2451384331,31925681.2591953
136,230,Park,Local,3513 Portland Ave,Tacoma,98404,City of Tacoma,Metro Parks Tacoma,Dawn to Dusk | Center hours vary,14.3,0,http://www.metroparkstacoma.org/portland-avenue-park,1,Portland Avenue Park & Community Center,13.87404363,Portland Avenue Park & Community Center, , , , , , , , , , , , , , , , , , , , , , , , , , ,0, ,No, ,3159.17285143921,604350.890759541
137,232,Playground,Local,S 23rd St At S J St,Tacoma,98405,Tacoma School District,Metro Parks Tacoma,Dawn to Dusk,2.07,0,http://www.metroparkstacoma.org/mccarver-park,1,McCarver Park,5.85042662,McCarver Park, , , , , , , , , , , , , , , , , , , , , , , , , , ,0, ,No, ,2479.90013509968,254843.569034139
138,234,Park,Local,900 Upper Park St. E,Tacoma,98404,City of Tacoma,Metro Parks Tacoma,Dawn to Dusk,0,24.79,http://www.metroparkstacoma.org/mckinley-park,1,McKinley Park,24.6367473,McKinley Park, , , , , , , , , , , , , , , , , , , , , , , , , , ,0, ,No, ,5100.54786920369,1073172.42382014
139,235,Playfield,Local,4329 McKinley Ave,Tacoma,98404,City of Tacoma,Metro Parks Tacoma,Dawn to Dusk,5.198,0,http://www.metroparkstacoma.org/mckinley-playfield,1,McKinley Playfield,5.18122936,McKinley Playfield, , , , , , , , , , , , , , , , , , , , , , , , , , ,0, ,No, ,2002.42700647186,225693.43881413
140,236,Golf,Special Use,7108 Lakewood Dr W,Tacoma,98467,City of Tacoma,Metro Parks Tacoma,Dawn to Dusk,143,0,http://www.metroparkstacoma.org/meadow-park-golf-course,1,Meadow Park Golf Course,145.54982043,Meadow Park Golf Course, , , , , , , , , , , , , , , , , , , , , , , , , , ,0, ,No, ,11794.3592003942,6340101.76938045
141,242,Railroad,Linear Park,349 Mineral Creek Rd,Mineral,98355,Mount Rainier Scenic Railroad,Mount Rainier Scenic Railroad,Check our Website for hours of operation and special events.WWW.MRSR.COM,66,0,http://www.mrsr.com/index.html,1,Mount Rainier Scenic Railroad,66.66151393,Mount Rainier Scenic Railroad, , , , , , , , , , , , , , , , , , , , , , , , , , ,0, ,No, ,60150.1404999975,2903667.31613735
142,244,Park,Private,12317 Gravelly Lake Dr SW,Lakewood,98499,Friends of Lakewold,Friends of Lakewold,See website,6.5098,0,http://www.lakewoldgardens.org/general_information.html,1,Lakewold Gardens,9.66314635,Lakewold Gardens, , , , , , , , , , , , , , , , , , , , , , , , , , ,0, ,No, ,2672.7518945771,420924.967924003
144,247,Park,Resource Conservancy,Alameda Ave W At Cirque Dr W,University Place,98467,City of University Place,City of University Place,Currently undeveloped,0,17.15,http://cityofup.com/Media/file/ParksAndRec/Park%20location_descript%202011.pdf,1,Leach Creek Park,19.5307323,Leach Creek Park, , , , , , , , , , , , , , , , , , , , , , , , , , ,0, ,No, ,11384.8816102411,850842.862792617
145,248,Park,Local,3690 South Steele Street,Tacoma,98409,City of Tacoma,Metro Parks Tacoma,Dawn to Dusk,3,0,http://www.metroparkstacoma.org/lincoln-heights-park,1,Lincoln Heights,3.00893784,Lincoln Heights, , , , , , , , , , , , , , , , , , , , , , , , , , ,0, ,No, ,1679.67899987764,130995.382878968
146,249,Park,Local,S 37th St At S Thompson Ave,Tacoma,98418,City of Tacoma,Metro Parks Tacoma,Dawn to Dusk,0,9.75,http://www.metroparkstacoma.org/lincoln-park,1,Lincoln Park,9.74695612,Lincoln Park, , , , , , , , , , , , , , , , , , , , , , , , , , ,0, ,No, ,4026.62431674973,424575.176461649
147,250,Park,Regional,10311 Chambers Creek Rd W,University Place,98467,Pierce County,Pierce County Parks and Recreation Services,Dawn to Dusk,0,41,http://www.co.pierce.wa.us/1363/Chambers-Creek-Regional-Park,1,Chambers Creek Regional Park,92.38204746,Chambers Creek Regional Park, ,Yes,Yes,Yes,Yes,No,No,No,Yes,No,Yes,No,No,Yes,No,Yes,Yes,No,No,No,No,No,No,No,No,No,185,"This is part of the Chambers Creek Regional Park complex, which includes 730-acres of park, golf course and canyon trails. The parks includes includes over two miles of saltwater shoreline and breathtaking mountain and Puget Sound views.",Yes, ,49206.1099937923,7850030.38714967
148,252,Park,Local,1216 S I ST,Tacoma,98405,City of Tacoma,Metro Parks Tacoma,Dawn to Dusk,0.2417,0,http://www.metroparkstacoma.org/lots-for-tots,1,Lot For Tots,0.24210683,Lot For Tots, , , , , , , , , , , , , , , , , , , , , , , , , , ,0, ,No, ,422.423334486298,10546.1182279068
149,253,Park,Local,9717 114TH AV AI,Anderson Island,98303,Anderson Island Park District,Anderson Island Park District,7 am to 10:30 pm,6.56,0,http://www.andersonislandparks.org/Lowell_Johnson_Park.html,1,Lowell Johnson Park,6.48124509,Lowell Johnson Park, , , , , , , , , , , , , , , , , , , , , , , , , , ,0, ,No, ,2348.00937116007,282281.621894327
150,254,Park,Local,1300 Park Street,Sumner,98390,City of Sumner,City of Sumner,8 am to 10 pm,2.64,0,http://www.ci.sumner.wa.us/Living/Loyalty_Park.htm,1,Loyalty Park,2.6595059,Loyalty Park, , , , , , , , , , , , , , , , , , , , , , , , , , ,0, ,No, ,1605.69660412295,115847.602605043
151,256,Community Center,Local,4806 South 66th Street,Tacoma,98409,City of Tacoma,Metro Parks Tacoma,Hours vary see website,2.3998,0,http://www.metroparkstacoma.org/page.php?id=803,1,Manitou Community and Art Center,2.39595904,Manitou Community and Art Center,http://www.metroparkstacoma.org/page.php?id=671, , , , , , , , , , , , , , , , , , , , , , , , , ,0, ,No, ,1339.81492220084,104367.567954123
152,257,Park,Local,4421 American Lake Blvd,Tacoma,98409,City of Tacoma,Metro Parks Tacoma,Dawn to Dusk,6.846,0,http://www.metroparkstacoma.org/manitou-park,1,Manitou Park,6.8523719,Manitou Park, , , , , , , , , , , , , , , , , , , , , , , , , , ,0, ,No, ,2189.63289420429,298488.13432577
153,258,Park,Local,2310 Manorwood Dr,Puyallup,98374,City of Puyallup,City of Puyallup,8 am to Dusk,6.6,0,http://www.cityofpuyallup.org/services/parks-recreation/city-puyallup-parks/manorwood-park/,1,Manorwood Park,6.38280055,Manorwood Park, , , , , , , , , , , , , , , , , , , , , , , , , , ,0, ,No, ,2280.94294565838,278033.680601958
154,259,Park,Local,3427 Ruston Way,Tacoma,98402,City of Tacoma,Metro Parks Tacoma,Dawn to Dusk (Pier is open 24 hours),7.02,0,http://www.metroparkstacoma.org/marine-park,1,Marine Park / Les Davis Pier,4.98510117,Marine Park / Les Davis Pier, , , , , , , , , , , , , , , , , , , , , , , , , , ,0, ,No, ,4083.92057299124,217150.147901112
155,262,Park,Local,719 San Juan Wy,Fircrest,98466,City of Fircrest,City of Fircrest,Dawn to Dusk (unless otherwise posted),0.8635,0, ,1,Masko Park,0.80979965,Masko Park, , , , , , , , , , , , , , , , , , , , , , , , , , ,0, ,No, ,867.991632603662,35281.1507312091
158,266,Wildlife Habitat,Resource Conservancy,17301 38th Ave Ct E,Frederickson,98446,Pierce County,Pierce County Parks and Recreation Services,Dawn to Dusk,17,20,https://www.piercecountywa.gov/1399/Naches-Trail-Preserve,1,Naches Trail Preserve,37.55,Naches Trail Preserve, ,n,y,y,n,y,y,n,n,n,n,n,n,n,n,n,n,n,n,n,n,n,n,n,n,n,37.55, ,Yes,no,7110.63129501914,1618254.30934966
159,267,Park,Local,S 8th & I St,Tacoma,98405,City of Tacoma,Metro Parks Tacoma,Dawn to Dusk,0.606,0,http://www.metroparkstacoma.org/neighbors-park,1,Neighbors Park,0.60643949,Neighbors Park, , , , , , , , , , , , , , , , , , , , , , , , , , ,0, ,No, ,745.109584582388,26416.4004711909
160,268,Wildlife Habitat,Local,2228 118th Ave E,Edgewood,98372,City of Edgewood,City of Edgewood,Dawn to Dusk,0,12.51,http://www.cityofedgewood.org/depts/parks/parks.htm,1,Nelson Nature Park,11.52039899,Nelson Nature Park, , , , , , , , , , , , , , , , , , , , , , , , , , ,0, ,No, ,2950.36112173201,501826.549529126
161,269,Wildlife Habitat,Local,11912 18th St E,Edgewood,98372,City of Edgewood,City of Edgewood,Dawn to Dusk (unless otherwise posted),10,0,http://www.cityofedgewood.org/depts/parks/parks.htm,1,Nelson Farm Park,9.0479174,Nelson Farm Park, , , , , , , , , , , , , , , , , , , , , , , , , , ,0, ,No, ,2538.9135710942,394125.695503835
162,270,Community Center,Special Use,690 9th Ave,Fox Island,98333,Fox Island Comunity and Recreation Association,Fox Island Comunity and Recreation Association,Call JJ Bland at 253-228-8161.,4.93,0,http://www.ficra.org/nichols-community-center.htm,1,Nichols Community Center,5.0156528,Nichols Community Center, , , , , , , , , , , , , , , , , , , , , , , , , , ,0, ,No, ,1980.10393777366,218480.978828725
164,272,Park,Local,1015 N 8th St,Tacoma,98403,City of Tacoma,Metro Parks Tacoma,Dawn to Dusk,0.1607,0,http://www.metroparkstacoma.org/north-slope-historic-d,1,North Slope Historic District Park,0.14232033,North Slope Historic District Park, , , , , , , , , , , , , , , , , , , , , , , , , , ,0, ,No, ,323.945659265363,6199.45027658412
165,273,Park,Local,5520 29th St NE,Tacoma,98422,City of Tacoma,Metro Parks Tacoma,Dawn to Dusk,3.8545,0,http://www.metroparkstacoma.org/northeast-tacoma-playground,1,Northeast Tacoma Playground,3.85541484,Northeast Tacoma Playground, , , , , , , , , , , , , , , , , , , , , , , , , , ,0, ,No, ,1728.49967161675,167941.211550887
166,274,Park,Regional,11610 Trek Dr. E,Eatonville,98328,City of Tacoma,Metro Parks Tacoma,Check website for hours,615,98,http://www.nwtrek.org/,1,Northwest Trek Wildlife Park,705.44495788,Northwest Trek Wildlife Park, ,Yes,Yes,Yes,Yes,No,No,No,Yes,Yes,No,No,No,No,No,No,No,No,No,No,No,No,No,No,No,No,0,"Since 1975, Northwest Trek Wildlife Park has been the best place to see native Northwest wildlife.",Yes,No,29018.3158868366,30728928.7037082
167,276,Park,Undeveloped Sites,7633 S Montgomery St.,Tacoma,98409,City of Tacoma,Metro Parks Tacoma,Dawn to Dusk,24.55,0,http://www.metroparkstacoma.org/oak-tree-park,1,Oak Tree Park,25.23161816,Oak Tree Park, , , , , , , , , , , , , , , , , , , , , , , , , , ,0, ,No, ,4871.74733852539,930150.429510507
168,277,Park,Local,9701 Onyx DR SW,Lakewood,98498,City of Lakewood,City of Lakewood,"7:30am - 9:00pm or sunset, whichever comes first",1.548,0,http://www.cityoflakewood.us/government/departments/parks-and-recreation/lakewood-parks,1,Oakbrook Park,1.54815726,Oakbrook Park, , , , , , , , , , , , , , , , , , , , , , , , , , ,0, ,No, ,1072.1160076316,67447.5180421312
169,278,Park,Local,3114 S Madison St.,Tacoma,98409,City of Tacoma,Metro Parks Tacoma,Dawn to Dusk,2.82,0,http://www.metroparkstacoma.org/oakland-madrona-park,1,Oakland - Madrona Park,2.83337656,Oakland - Madrona Park, , , , , , , , , , , , , , , , , , , , , , , , , , ,0, ,No, ,1982.0674238857,123405.948972487
171,280,Pier,Local,McCarver and Ruston Way,Tacoma,98402,City of Tacoma,Metro Parks Tacoma,Dawn to Dusk,0.96,0,http://www.metroparkstacoma.org/old-town-dock,1,Old Town Dock,2.74977574,Old Town Dock, , , , , , , , , , , , , , , , , , , , , , , , , , ,0, ,No, ,1452.07641314165,119779.74051015
172,281,Park,Local,2350 N 30th ST,Tacoma,98403,City of Tacoma,Metro Parks Tacoma,Dawn to Dusk,1.21,0,http://www.metroparkstacoma.org/old-town-park,1,Old Town Park,1.21356434,Old Town Park, , , , , , , , , , , , , , , , , , , , , , , , , , ,0, ,No, ,1080.602966222,52862.6594806871
173,282,Park,Local,1330 N James St,Tacoma,98406,City of Tacoma,Metro Parks Tacoma,Dawn to Dusk,2.65,0,http://www.metroparkstacoma.org/optimist-park,1,Optimist Park,2.65414434,Optimist Park, , , , , , , , , , , , , , , , , , , , , , , , , , ,0, ,No, ,2362.83348793549,115614.057186565
174,283,Trail Head,Local,Corner of Washington Ave N and Calistoga St W,Orting,98360,City of Orting,City of Orting,Dawn to Dusk (unless otherwise posted),7.17,0,http://www.cityoforting.org/Parks___Recreation.php,1,Orting City Park,4.07192705,Orting City Park, , , , , , , , , , , , , , , , , , , , , , , , , , ,0, ,No, ,3417.06766005558,177372.431225797
176,285,Park,Trail,N ALDER WAY & N LAWRENCE ST,Tacoma,98407,City of Tacoma,Metro Parks Tacoma,Dawn to Dusk,0,3.98,http://www.metroparkstacoma.org/page.php?id=606,1,Puget Creek Natural Area,1480.82919912,Puget Creek Natural Area, , , , , , , , , , , , , , , , , , , , , , , , , , ,0, ,No, ,10042.0095505971,1593944.86728275
177,289,Park,Local,10301 Bujacich Rd NW,Gig Harbor,98332,Peninsula Metropolitan Park District,Peninsula Metropolitan Park District,7 am to dusk,,109.74,https://penmetparks.org/parks/mccormick-forest-park/,1,McCormick Forest Park,109.74,McCormick Forest Park, ,yes, , , ,yes, , ,yes, , , , , , , , , , , , , , , , , ,109, ,No, ,17220.1398800433,4556493.18404268
179,292,Skate Park,Local,1299 4th Street NW,Puyallup,98371,City of Puyallup,City of Puyallup,8 am - 9 pm Sunday - Thursday8 am - 11pm Friday & Saturday,0.5,0,http://www.cityofpuyallup.org/services/parks-recreation/city-puyallup-parks/puyallup-skatepark/,1,Puyallup Skate Park,3.00475822,Puyallup Skate Park, , , , , , , , , , , , , , , , , , , , , , , , , , ,0, ,No, ,1508.03084151379,130886.748974889
180,293,Rec Area,Regional,820 Valley Avenue NW,Puyallup,98371,City of Puyallup,City of Puyallup,8 am - 11:00 pm (seasonal),24.94,0,http://www.cityofpuyallup.org/services/parks-recreation/city-puyallup-parks/puyallup-valley-sports-complex/,1,Puyallup Valley Sports Complex,25.14713044,Puyallup Valley Sports Complex, , , , , , , , , , , , , , , , , , , , , , , , , , ,0, ,No, ,4867.25156581739,1095437.18715409
181,295,Park,Local,2610 Cherokee Blvd,Puyallup,98374,City of Puyallup,City of Puyallup,8 am to Dusk,7.35,0,http://www.cityofpuyallup.org/services/parks-recreation/city-puyallup-parks/rainer-woods-park/,1,Rainier Woods Park,7.78496599,Rainier Woods Park, , , , , , , , , , , , , , , , , , , , , , , , , , ,0, ,No, ,3762.51158550085,339057.133638423
183,298,Park,Local,1301 E 34TH ST,Tacoma,98404,City of Tacoma,Metro Parks Tacoma,Dawn to Dusk,2.3416,0,http://www.metroparkstacoma.org/rogers-park,1,Rogers Park,2.34668696,Rogers Park,http://www.metroparkstacoma.org/files/library/bf990d213f8806ec.pdf, , , , , , , , , , , , , , , , , , , , , , , , , ,0, ,No, ,1281.39984606897,102221.288120898
184,299,Park,Local,3601 E Roosevelt Ave,Tacoma,98404,City of Tacoma,Metro Parks Tacoma,Dawn to Dusk,13.47,0,http://www.metroparkstacoma.org/roosevelt-park,1,Roosevelt Park,13.86107247,Roosevelt Park, , , , , , , , , , , , , , , , , , , , , , , , , , ,0, ,No, ,5803.25754348467,603783.442378855
185,300,Rec Center,Special Use,86th Avenue NW,Gig Harbor,98332,Peninsula Metropolitan Park District,Peninsula Metropolitan Park District,7 am to dusk,2,0,http://www.penmetparks.org/26501/27785.html,1,Rosedale Park,2.19376457,Rosedale Park, , , , , , , , , , , , , , , , , , , , , , , , , , ,0, ,No, ,1837.35934959123,95560.0006982055
186,302,Park,Local,[900-999] Main St,Sumner,98390,City of Sumner,City of Sumner,8 am to 10 pm,2.3312,0,http://www.ci.sumner.wa.us/Living/Heritage_Park.htm,1,Rueben Knoblauch Heritage Park,0.44826239,Rueben Knoblauch Heritage Park, , , , , , , , , , , , , , , , , , , , , , , , , , ,0, ,No, ,626.517633508267,19526.2324335144
187,303,Park,Local,5309 N Commercial St,Ruston,98407,City of Ruston,City of Ruston,Dawn to Dusk,1.8739,0,http://www.rustonwa.org/services/parks/rust-park,1,Rust Park,6.172282,Rust Park, , , , , , , , , , , , , , , , , , , , , , , , , , ,0, ,No, ,2171.12468402216,268863.522287554
188,305,Park,Regional, ,Tacoma,98402,City of Tacoma,Metro Parks Tacoma,Dawn to Dusk,28.0153,0,http://www.metroparkstacoma.org/ruston-way,1,Ruston Way,11.22055216,Ruston Way, , , , , , , , , , , , , , , , , , , , , , , , , , ,0, ,No, ,7466.86996826066,488765.278385505
189,306,Community Center,Local,1228 Main Street,Sumner,98390,City of Sumner,Sumner Historical Society,Summer Hours Only Sat/Sunday 1-4pm,0.418,0,http://www.ci.sumner.wa.us/Living/Ryan_House.htm,1,Ryan House,0.41874035,Ryan House, , , , , , , , , , , , , , , , , , , , , , , , , , ,0, ,No, ,550.907699879366,18240.2566872267
190,307,Beach,Local,91 Champion St,Steilacoom,98388,Town of Steilacoom,Town of Steilacoom,Dawn to Dusk,1.1,0,http://www.townofsteilacoom.com/activities/parks_recreation.htm#saltars_point,1,Saltar's Point Beach,0.92458952,Saltar's Point Beach, , , , , , , , , , , , , , , , , , , , , , , , , , ,0, ,No, ,1807.39673518624,40280.2158977347
191,308,Park,Local,1621 10th Ave NW,Puyallup,98371,City of Puyallup,City of Puyallup,8 am to Dusk,5.69,0,http://www.cityofpuyallup.org/services/parks-recreation/city-puyallup-parks/sam-peach-park/,1,Sam Peach Park,5.59942387,Sam Peach Park, , , , , , , , , , , , , , , , , , , , , , , , , , ,0, ,No, ,2173.61333733831,243908.764452159
192,309,Park,Local,3315 S Sawyer St,Tacoma,98418,City of Tacoma,Metro Parks Tacoma,Dawn to Dusk,0.505,0,http://www.metroparkstacoma.org/sawyer-tot-lot,1,Sawyer Tot Lot,0.49783725,Sawyer Tot Lot, , , , , , , , , , , , , , , , , , , , , , , , , , ,0, ,No, ,614.386784356094,21685.7062302741
194,312,Park,Local,10123 78TH AVE NW,Gig Harbor,98332,Peninsula Metropolitan Park District,Peninsula Metropolitan Park District,7 am to dusk,98,0,https://penmetparks.org/parks/sehmel-homestead-park/,1,Sehmel Homestead Park,97.19946384,Sehmel Homestead Park, ,yes,yes,yes,yes,yes, ,yes,yes,yes, ,yes,yes,yes, , , , , ,yes, , , , , , ,98, ,No, ,9672.18473071038,4233991.68048542
195,313,Park,Local,1602 Bonney Ave,Sumner,98390,City of Sumner,City of Sumner,Per City Rules,2.3,0,http://www.ci.sumner.wa.us/Living/Seibenthaler.htm,1,Seibenthaler Park,2.33831089,Seibenthaler Park, , , , , , , , , , , , , , , , , , , , , , , , , , ,0, ,No, ,1677.13348092847,101856.425820861
196,315,Community Center,Special Use,2534 Grandview Drive West,University Place,98466,City of University Place,City of University Place,Monday through Friday 8 AM to 5 PM,0.5,0,http://cityofup.com/Page97.aspx,1,Senior Center- University Place,0.11101253,Senior Center (University Place), , , , , , , , , , , , , , , , , , , , , , , , , , ,0, ,No, ,313.134395065744,4835.68790367866
197,316,Park,Local,2347 S Sheridan Ave,Tacoma,98405,City of Tacoma,Metro Parks Tacoma,Dawn to Dusk (unless otherwise posted),0.4906,0,http://www.metroparkstacoma.org/sheridan-park,1,Sheridan Park,0.56743487,Sheridan Park, , , , , , , , , , , , , , , , , , , , , , , , , , ,0, ,No, ,640.064166001288,24717.3635743747
198,318,Park,Regional,1919 S Tyler St,Tacoma,98405,City of Tacoma,Metro Parks Tacoma,Park: Dawn to Dusk | Tacoma Nature Center M-F(8am-5pm) Sat (10am-4pm),67.5123,0,http://www.metroparkstacoma.org/tacomanaturecenter,1,Tacoma Nature Center,70.4368951,Tacoma Nature Center, , , , , , , , , , , , , , , , , , , , , , , , , , ,0, ,No, ,15463.8823975979,3068296.16966577
200,321,Wildlife Habitat,Local,12414 Claussen Rd AI,Anderson Island,98303,Anderson Island Park District,Anderson Island Park District,7 am to 10:30 pm,0,11.7,http://www.andersonislandparks.org/Andy_s_Marine_Park.html,1,Andy's Marine Park,88.4329159,Andy's Marine Park, , , , , , , , , , , , , , , , , , , , , , , , , , ,0, ,No, ,10859.4222014079,3852122.40351166
201,322,Community Center,Local,7802 South L Street,Tacoma,98408,City of Tacoma,Metro Parks Tacoma,Hours vary - see www.metroparkstacoma.org,2.75,0, ,1,South End Neighborhood Center,2.73068555,South End Neighborhood Center,http://www.metroparkstacoma.org/page.php?id=630, , , , , , , , , , , , , , , , , , , , , , , , , ,0, ,No, ,1728.6602761142,118948.189963419
202,323,Rec Area,Regional,6002 S Adams St,Tacoma,98409,City of Tacoma,Metro Parks Tacoma,Dawn to Dusk,39.91,0,http://www.metroparkstacoma.org/sera-campus-south-end-receation,1,SERA Campus South End Recreation & Adventure,59.7990332,SERA Campus (South End Recreation & Adventure), , , , , , , , , , , , , , , , , , , , , , , , , , ,0, ,No, ,8134.25259803522,2604827.64976829
203,324,Park,Local,86th Ave E & 144th St E,Puyallup,98373,Pierce County,Pierce County Parks and Recreation Services,Dawn to Dusk,39.51,0,https://www.co.pierce.wa.us/1334/South-Hill-Community-Park,1,South Hill Community Park,39.5123984,South Hill Community Park, ,Yes,Yes,Yes,Yes,No,No,No,No,Yes,No,No,No,Yes,No,No,No,No,No,No,No,No,No,No,No,No,39.56,"The South Hill Community Park is a 40-acre site which includes, bathrooms, playground, picnic tables, multipurpose sports fields and a network of paved meandering trails, South Hill Loop Trail and Nathan Chapman Memorial Trail.",Yes, ,5248.08463225685,1721153.15364925
204,325,Park,Local,4851 S Tacoma Way,Tacoma,98409,City of Tacoma,Metro Parks Tacoma,Dawn to Dusk,14.5,0,http://www.metroparkstacoma.org/south-park,1,South Park,15.35343554,South Park, , , , , , , , , , , , , , , , , , , , , , , , , , ,0, ,No, ,9350.03569682883,668792.990868928
205,326,Wildlife Habitat,Special Use,7801 Phillips Rd,Lakewood,98498,State of Washington,State of Washington,Closed during hours of darkness,0,86.28,http://wdfw.wa.gov/lands/wildlife_areas/south_puget_sound/South%20Puget%20Sound/,1,South Puget Sound Unit,86.04644393,South Puget Sound Unit, , , , , , , , , , , , , , , , , , , , , , , , , , ,0, ,No, ,11710.3346903392,3748157.54692971
206,327,Park,Local,12601 ADDISON ST SW,Lakewood,98499,City of Lakewood,City of Lakewood,"7:30am - 9:00pm or sunset, whichever comes first",3.52,0,http://www.cityoflakewood.us/government/departments/parks-and-recreation/lakewood-parks,1,Springbrook Park,3.271341,Springbrook Park, , , , , , , , , , , , , , , , , , , , , , , , , , ,0, ,No, ,1649.62932179594,142499.043540266
207,328,Playfield,Local,1712 S 19th St,Tacoma,98405,City of Tacoma,Metro Parks Tacoma,Dawn to Dusk,6.8066,0,http://www.metroparkstacoma.org/stanley-playfield,1,Stanley Playfield,6.80667282,Stanley Playfield, , , , , , , , , , , , , , , , , , , , , , , , , , ,0, ,No, ,2449.98472893502,296497.44360514
208,329,Rec Area,Local,"402 E 56th St, E 60th St At E B St",Tacoma,98404,City of Tacoma,Metro Parks Tacoma,Dawn to Dusk,22.89,0,http://www.metroparkstacoma.org/stewart-heights-park,1,Stewart Heights Park,24.08287043,Stewart Heights Park, , , , , , , , , , , , , , , , , , , , , , , , , , ,0, ,No, ,5315.07456190412,1049045.61799656
209,332,Golf,Regional,14802 8th St. E.,Sumner,98390,City of Sumner,City of Sumner,Sun-Sat Daylight to Dark,141.12,0,http://www.golfsumnermeadows.com/index.php,1,Sumner Meadows Golf Links,158.15368845,Sumner Meadows Golf Links, , , , , , , , , , , , , , , , , , , , , , , , , , ,0, ,No, ,16050.9663579031,6889181.14339878
210,333,Beach,Local,2509 Chambers Creek Road,Steilacoom,98388,Town of Steilacoom,Town of Steilacoom,Dawn to Dusk,12.475,0, ,1,Sunnyside Beach,8.60733166,Sunnyside Beach, , , , , , , , , , , , , , , , , , , , , , , , , , ,0, ,No, ,6838.74360699198,374939.242078024
211,334,Park,Local,Seaview and South 19th St,University Place,98466,City of University Place,City of University Place,Dawn to Dusk,2,0,http://cityofup.com/Media/file/ParksAndRec/Park%20location_descript%202011.pdf,1,Sunset Terrace,2.04825797,Sunset Terrace, , , , , , , , , , , , , , , , , , , , , , , , , , ,0, ,No, ,1216.37729014065,89221.7640957642
212,335,Park,Undeveloped Sites,2730 Pioneer Way E,Tacoma,98404,City of Tacoma,Metro Parks Tacoma,Dawn to Dusk,0,213.3999,http://www.metroparkstacoma.org/swan-creek-park,1,Swan Creek Park- Metro,248.75997314,Swan Creek Park- Metro, , , , , , , , , , , , , , , , , , , , , , , , , , ,0, ,No, ,61710.0863625842,10835875.08318
213,336,Undeveloped,Special Use,2954 Pioneer Way East,Tacoma,98404,Pierce County,Pierce County Parks and Recreation Services,Dawn to Dusk,0,40, ,1,Swan Creek Park- Pioneer Way,40,Swan Creek Park - Pioneer Way (Pierce County), ,No,No,Yes,No,Yes,No,No,No,No,No,No,No,No,No,No,No,No,No,No,No,No,No,No,No,No,40,This undeveloped park includes a gravel parking lot and soft surface nature trails along Swan Creek. Trails connect to Metro Parks Swan Creek Park nature trails.,Yes, ,7529.96430681452,1734327.65520479
215,339,Park,Local,405 Dock St,Tacoma,98402,City of Tacoma,Metro Parks Tacoma,Dawn to Dusk,2.9782,0,http://www.metroparkstacoma.org/theas-park,1,Thea's Park,2.92871615,Thea's Park, , , , , , , , , , , , , , , , , , , , , , , , , , ,0, ,No, ,1807.74570458921,127559.006025743
216,341,Community Center,Special Use,8425 6th Ave,Tacoma,98465,City of Tacoma,Metro Parks Tacoma,Dawn to Dusk,76.1318,0,http://www.metroparkstacoma.org/titlow-park,1,"Titlow Park, Community Center and Lodge",86.88118931,"Titlow Park, Community Center and Lodge", , , , , , , , , , , , , , , , , , , , , , , , , , ,0, ,No, ,17151.8313036357,3784541.78785664
217,343,Beach,Regional,3rd Avenue Fi & 3rd Court Fi (Fox Island Bridge),Fox Island,98333,U.S. Federal Government,U.S. Federal Government,Dawn to Dusk,0.33,0, ,1,Towhead Island Boat Launch,0.32345282,Towhead Island Boat Launch,http://www.foxislandwa.net/boat_launch.htm, , , , , , , , , , , , , , , , , , , , , , , , , ,0, ,No, ,461.818421795864,14087.0916160031
219,346,Park,Local,1101 MILTON WY,Milton,98354,City of Milton,City of Milton,Dawn to Dusk (unless otherwise posted),7.0527,0,http://www.cityofmilton.net/page.php?id=97,1,Milton Community Park,9.09294626,Milton Community Park, , , , , , , , , , , , , , , , , , , , , , , , , , ,0, ,No, ,3240.33487083198,396087.184121686
220,348,Park,Resource Conservancy,2300 N 29th St,Tacoma,98407,City of Tacoma,Metro Parks Tacoma,Dawn to Dusk,0,6.3668,http://www.metroparkstacoma.org/ursich-park,1,Ursich Park,6.381512,Ursich Park, , , , , , , , , , , , , , , , , , , , , , , , , , ,0, ,No, ,4687.4237899684,277977.568243922
221,349,Park,Local,6100 N 37th,Tacoma,98407,City of Tacoma,Metro Parks Tacoma,Dawn to Dusk,16.79,0,http://www.metroparkstacoma.org/vassault-park,1,Vassault Park,16.95998059,Vassault Park, , , , , , , , , , , , , , , , , , , , , , , , , , ,0, ,No, ,3693.58813104965,738866.883580711
222,352,Park,Local,5514 Key Peninsula Hwy N,Lakebay,98349,Key Pen Parks,Key Pen Parks,8 am to Dusk,20.76,0,http://www.keypenparks.com/volunteer-park.htm,1,Volunteer Park,20.76,Volunteer Park, ,Yes, ,Yes,Yes, , , ,Yes,Yes, ,Yes,Yes, , , , , ,Yes, , , , ,Yes, , ,20.76, ,No, ,4122.86090675897,900601.41180886
225,356,Park,Regional,6500 S Sheridan Av,Tacoma,98408,City of Tacoma,Metro Parks Tacoma,Dawn to Dusk,85.0535,0,http://www.metroparkstacoma.org/wapato-park,1,Wapato Park,90.10284706,Wapato Park, , , , , , , , , , , , , , , , , , , , , , , , , , ,0, ,No, ,10017.6775386708,3924864.29494536
226,357,Park,Regional,South Macarthur St and 6th Av,Tacoma,98406,State of Washington,State of Washington DOT,Dawn to Dusk,8.2,0,http://www.wsdot.wa.gov/tnbhistory/Connections/connections5.htm,1,War Memorial Park,0.50490198,War Memorial Park, , , , , , , , , , , , , , , , , , , , , , , , , , ,0, ,No, ,653.629118019275,21984.1021724853
227,359,Park,Local,2716 84th St S,Lakewood,98499,City of Lakewood,City of Lakewood,"7:30am - 9:00pm or sunset, whichever comes first",11.97,13.17,http://www.cityoflakewood.us/government/departments/parks-and-recreation/lakewood-parks#Wards Lake Park,1,Wards Lake Park,27.8026368,Wards Lake Park, , , , , , , , , , , , , , , , , , , , , , , , , , ,0, ,No, ,6004.37104752764,1211077.96905677
228,360,Park,Local,11603 Farwest Drive SW,Lakewood,98498,City of Lakewood,City of Lakewood,"7:30am - 9:00pm or sunset, whichever comes first",3.4,0,http://www.cityoflakewood.us/government/departments/parks-and-recreation/lakewood-parks,1,Washington Park,3.71324504,Washington Park, , , , , , , , , , , , , , , , , , , , , , , , , , ,0, ,No, ,3044.67173010391,161745.060592848
229,361,Park,Local,5811 28TH ST E,Fife,98424,City of Fife,City of Fife,Dawn to Dusk,1.994,0,http://cityoffife.org/?p=city_departments&a=parks_and_recreation&b=city_parks&c=wedge_park,1,Wedge Park,2.07352598,Wedge Park, , , , , , , , , , , , , , , , , , , , , , , , , , ,0, ,No, ,1607.12895462982,90322.4356615386
234,366,Park,Local,Contra Costa and Elm Tree Lane,Fircrest,98466,City of Fircrest,City of Fircrest,Dawn to Dusk,10,0, ,1,Whittier Park,9.99320263,Whittier Park, , , , , , , , , , , , , , , , , , , , , , , , , , ,0, ,No, ,2639.53440122961,435302.196073044
235,367,Park,Local,1101 23rd Ave. SE,Puyallup,98372,City of Puyallup,City of Puyallup,8 am to Dusk,80,0,http://www.cityofpuyallup.org/services/parks-recreation/city-puyallup-parks/wildwood-park/,1,Wildwood Park,84.10717727,Wildwood Park, , , , , , , , , , , , , , , , , , , , , , , , , , ,0, ,No, ,8036.74560667201,3663693.92199576
236,368,Wildlife Habitat,Resource Conservancy,Sandberg Rd AI,Anderson Island,98303,Anderson Island Park District,Anderson Island Park District,7 am to 10:30 pm,0,50,http://www.andersonislandparks.org/Andy_s_Wildlife_Park_3ZQR.html,1,Andy's Wildlife Park,157.71481259,Andy's Wildlife Park, , , , , , , , , , , , , , , , , , , , , , , , , , ,0, ,No, ,14796.3746758466,6869964.99609137
237,369,Wildlife Habitat,Resource Conservancy,4415 Wollochet Dr NW,Gig Harbor,98335,Peninsula Metropolitan Park District,Peninsula Metropolitan Park District,7 am to dusk,0,20,https://penmetparks.org/parks/wollochet-bay-estuary/,1,Wollochet Bay Estuary,20,Wollochet Bay Estuary, , , , , , , , ,yes, , , , , , ,yes, , , , , , , , , , ,20, ,No, ,6805.72156747462,937300.15035362
239,371,Park,Local,6th Ave At S Yakima Ave,Tacoma,98405,City of Tacoma,Metro Parks Tacoma,Dawn to Dusk,27,0,http://www.metroparkstacoma.org/wright-park,1,Wright Park,29.30808637,Wright Park, , , , , , , , , , , , , , , , , , , , , , , , , , ,0, ,No, ,5139.15791793579,1276655.71938419
241,377,Park,Local,17220 8th AVE CT NW,Lakebay,98349,Key Pen Parks,Key Pen Parks,8 am to Dusk,1.7413,0,http://www.keypenparks.com/home-park.htm,1,Home Park,1.63131802,Home Park, ,YES, ,YES, , , , ,YES,YES, , , , , , , , , , , , , , , , ,1.74, ,no, ,1124.15181699125,71059.9464306894
242,378,Park,Regional,17803 76th St KS,Longbranch,98351,Key Pen Parks,Key Pen Parks,8 am to Dusk,0,40.2,http://www.keypenparks.com/taylor-bay-park.htm,1,Taylor Bay Park,40.2,Taylor Bay Park, , , , , , , , , , , , , , , , , , , , , , , , , , ,40.2, ,No, ,9745.2079151963,1676632.16448937
243,379,Park,Undeveloped Sites,State Route 302 & 150th Ave KPN,Gig Harbor,98329,Pierce County,Key Pen Parks,Daylight hours only,0,224,http://www.keypenparks.com/rocky-creek-park.htm,1,Rocky Creek Conservation Area,238.39861217,Rocky Creek Conservation Area, , , , , , , , , , , , , , , , , , , , , , , , , , ,0, ,No, ,15875.2477161115,10384600.3920939
244,380,Park,Resource Conservancy,4411 Van Beek RD NW,Lakebay,98349,KEY PEN PARKS,Key Pen Parks,Daylight hours only,0,58.5,http://www.keypenparks.com/maple-hollow-park.htm,1,Maple Hollow Park,58.34729876,Maple Hollow, ,Yes, ,Yes, ,Yes,Yes, ,Yes, , , , , , ,Yes, , , , , , , , , , ,58.5, ,no, ,7704.91877807522,2541638.9630112
245,381,Trail,Resource Conservancy,SR 302 at 144th St,Gig Harbor,98329,Key Pen Parks,Key Pen Parks,Daylight hours only,360,0,http://www.keypenparks.com/360-park.htm,1,360 Trails,349.16185233,360 Trails,, , , , ,Yes, , , , , , , , , , , , , , , , ,Yes, , , ,360, ,no, ,18233.3055529104,15209429.6127862
246,382,Trail,Regional,"6701 67th St Ct SW, Lakewood",Lakewood,98467,Pierce County,Pierce County Parks and Recreation Services,Dawn to Dusk,2,193,http://www.co.pierce.wa.us/1369/Chambers-Creek-Canyon-Trail,1,Chambers Creek Canyon,199.75284537,Chambers Creek Canyon Park, ,No,No,Yes,No,Yes,No,No,Yes,No,No,No,No,No,No,No,Yes,No,No,No,No,No,No,No,No,No,204.63,There are two soft-surface nature trails located within the Chambers Creek Canyon. One trail begins at Kobayashi Park and the other begins at Chambers Creek Road or Zircon Drive. ,Yes, ,44347.4710165024,9527794.85273523
247,383,Park,Special Use,8202 87th Ave SW,Lakewood,98498,State of Washington,Washington State Department of Fish and Wildlife,Dawn to Dusk,105,0,,1,Fort Steilacoom Disc Golf Course,82.74256086,Fort Steilacoom Disc Golf Course, ,Yes,,Yes,No,yes,No,No,No,No,No,no,No,No,no,No,No,No,No,No,No,No,No,yes,No,No,81.92,,no, ,8455.22414772417,3604201.97801264
248,385,Park,Local,1700 12th Ave SW,Puyallup,98371,City of Puyallup,City of Puyallup,Dawn to Dusk (unless otherwise posted),45.01,0,http://www.cityofpuyallup.org/services/parks-recreation/city-puyallup-parks/clarks-creek-park/,1,Clarks Creek Park South,46.12878531,Clarks Creek Park South, , , , , , , , , , , , , , , , , , , , , , , , , , ,0, ,No, ,7183.40141593142,2009361.81507929
250,799,Park,Local,2820 54th Ave E,Fife,98424,City of Fife,City of Fife,8 am to Dusk,38.09,0,http://cityoffife.org/?p=city_departments&a=parks_and_recreation&b=city_parks&c=dacca_park,1,Dacca Park,9.35683598,Dacca Park, , , , , , , , , , , , , , , , , , , , , , , , , , ,0, ,No, ,3361.27981489801,407582.107982891
251,1597,Golf,Special Use,3604 22ND AV NW,Gig Harbor,98335,Peninsula Metropolitan Park District,Peninsula Metropolitan Park District,,91,0,https://madronalinks.com/,1,Madrona Links Golf Course,91.41441329,Madrona Links Golf Course, ,yes, ,yes, , , , , , , , , , ,yes, , , , , , , , , , , ,91, ,No, ,8411.38909157001,3981995.87460681
252,1841,Park,Local,9301 208th Av E,Bonney Lake,98391,City of Bonney Lake,City of Bonney Lake,Dawn to Dusk,2.9,0,http://www.ci.bonney-lake.wa.us/section_community/parks_recreation/city_parks.shtml,1,Cedarview Park,2.91418018,Cedarview Park, , , , , , , , , , , , , , , , , , , , , , , , , , ,0, ,No, ,1472.54377804706,126936.298866583
253,1842,Park,Local,7730 182nd Av E,Bonney Lake,98391,City of Bonney Lake,City of Bonney Lake,Closes at Dusk,0.37,0,http://www.ci.bonney-lake.wa.us/section_community/parks_recreation/city_parks.shtml,1,Madrona Park,0.36980575,Madrona Park, , , , , , , , , , , , , , , , , , , , , , , , , , ,0, ,No, ,523.698729465894,16108.6727816505
254,1845,Park,Local,15603 Meade McCumber Road,Sumner,98390,City of Sumner,City of Sumner,Per City Rules,3.85,0,http://www.ci.sumner.wa.us/Living/Rainier_View.htm,1,Rainier View Park,3.84584555,Rainier View Park, , , , , , , , , , , , , , , , , , , , , , , , , , ,0, ,No, ,1705.69419700438,167524.376878554
255,1846,Park Under Construction,Resource Conservancy,4118 Rosedale St,Gig Harbor,98335,City of Gig Harbor,City of Gig Harbor,Dawn to Dusk,16,0,http://www.cityofgigharbor.net/page.php?id=699,1,Wilkinson Farm Park,17.22620357,Wilkinson Farm Park, , , , , , , , , , , , , , , , , , , , , , , , , , ,0, ,No, ,5581.56698438517,750370.430944862
256,1847,Park,Special Use,8917 Franklin St,Gig Harbor,98332,City of Gig Harbor,City of Gig Harbor,Dawn to Dusk,0.2,0,http://www.cityofgigharbor.net/page.php?id=699,1,Finholm View Climb,0.07775018,Finholm View Climb, , , , , , , , , , , , , , , , , , , , , , , , , , ,0, ,No, ,285.788023420012,3386.77692905442
257,1848,Park,Special Use,3805 Harborview Dr,Gig Harbor,98332,City of Gig Harbor,City of Gig Harbor,Dawn to Dusk,1.817,0,http://www.cityofgigharbor.net/page.php?id=699,1,Eddon Boat Park,1.81690003,Eddon Boat Park, , , , , , , , , , , , , , , , , , , , , , , , , , ,0, ,No, ,1072.51450729507,79126.9349383632
258,1850,Park,Local,3510 Grandview Street,Gig Harbor,98335,City of Gig Harbor,City of Gig Harbor,Dawn to Dusk,3.344,0,http://www.cityofgigharbor.net/page.php?id=699,1,Civic Center Green,3.34417743,Civic Center Green, , , , , , , , , , , , , , , , , , , , , , , , , , ,0, ,No, ,1741.4277803267,145666.042103473
259,1851,Skate Park,Special Use,3510 Grandview Street,Gig Harbor,98335,City of Gig Harbor,City of Gig Harbor,Dawn to Dusk,2.7,0,http://www.cityofgigharbor.net/page.php?id=699,1,Skate Park,7.12304519,Skate Park, , , , , , , , , , , , , , , , , , , , , , , , , , ,0, ,No, ,3002.58272235343,310284.350948202
260,1853,Park,Local,3580 50th St Ct,Gig Harbor,98335,City of Gig Harbor,City of Gig Harbor,Dawn to Dusk,6.4,0,http://www.cityofgigharbor.net/page.php?id=699,1,Kenneth Leo Marvin Veterans Memorial Park,6.40722841,Kenneth Leo Marvin Veterans Memorial Park, , , , , , , , , , , , , , , , , , , , , , , , , , ,0, ,No, ,2165.92192923478,279097.78270605
261,1854,Park,Local,Barksdale Av & Hopewell St,DuPont,98327,City of DuPont,City of DuPont,Dawn to Dusk,16,0,http://www.ci.dupont.wa.us/public-works/parks-recreation/city-parks.html,1,Sellers Park,33.39233244,Sellers Park, , , , , , , , , , , , , , , , , , , , , , , , , , ,0, ,No, ,8009.97680075112,1454499.99755131
262,1855,Park,Local,Penniman St & Louviers Av,DuPont,98327,City of DuPont,City of DuPont,Dawn to Dusk,0.6,0,http://www.ci.dupont.wa.us/public-works/parks-recreation/city-parks.html,1,Ethel Lumsdon Park,0.60552227,Ethel Lumsdon Park, , , , , , , , , , , , , , , , , , , , , , , , , , ,0, ,No, ,652.864575519368,26376.4351351645
263,1856,Park,Local,Palisade Blvd & Thompson Cir,DuPont,98327,City of DuPont,City of DuPont,Dawn to Dusk,2.309,0,http://www.ci.dupont.wa.us/public-works/parks-recreation/city-parks.html,1,Clocktower Park,2.31086716,Clocktower Park, , , , , , , , , , , , , , , , , , , , , , , , , , ,0, ,No, ,1296.98805552109,100484.523989888
264,1857,Park,Local,1500 Wilmington Dr,DuPont,98327,City of DuPont,City of DuPont,Dawn to Dusk,0.83,0,http://www.ci.dupont.wa.us/public-works/parks-recreation/city-parks.html,1,Ross Park,0.83821153,Ross Park, , , , , , , , , , , , , , , , , , , , , , , , , , ,0, ,No, ,709.545035177812,36468.7890555438
265,1858,Park,Local,McNeil St,DuPont,98327,City of DuPont,City of DuPont,Dawn to Dusk,15.11,0,http://www.ci.dupont.wa.us/public-works/parks-recreation/city-parks.html,1,Garry Oaks Park,15.11049242,Garry Oaks Park, , , , , , , , , , , , , , , , , , , , , , , , , , ,0, ,No, ,12351.2040265685,658284.939023799
266,1859,Park,Local,1775 Bobs hollow Ln,DuPont,98327,City of DuPont,City of DuPont,Dawn to Dusk,24,0,http://www.ci.dupont.wa.us/public-works/parks-recreation/city-parks.html,1,DuPont PowderWorks Park,24.08902247,DuPont PowderWorks Park, , , , , , , , , , , , , , , , , , , , , , , , , , ,0, ,No, ,4872.05363075131,1049424.7054849
267,1860,Park,Local,1755 Brown Av,DuPont,98327,City of DuPont,City of DuPont,Dawn to Dusk,4.68,0,http://www.ci.dupont.wa.us/public-works/parks-recreation/city-parks.html,1,Chief Leschi Park,4.68260073,Chief Leschi Park, , , , , , , , , , , , , , , , , , , , , , , , , , ,0, ,No, ,1882.46045712584,203842.03567459
268,1864,Park,Local,Barksdale Av,DuPont,98327,City of DuPont,City of DuPont,Dawn to Dusk,0.61,0,http://www.ci.dupont.wa.us/public-works/parks-recreation/city-parks.html,1,Iafrati Park,0.61043492,Iafrati Park, , , , , , , , , , , , , , , , , , , , , , , , , , ,0, ,No, ,772.764480768713,26616.5263787855
269,1865,Park,Local,6626 Wagner Way,Gig Harbor,98335,Private Owner,City of Gig Harbor,Dawn to Dusk,3,0,http://www.cityofgigharbor.net/page.php?id=699,1,Adam Tallman Park,3.00451689,Adam Tallman Park, , , , , , , , , , , , , , , , , , , , , , , , , , ,0, ,No, ,1526.773631928,130905.035206204
270,1866,Park,Local,6335 Radiance Blvd E,Fife,98424,City of Fife,City of Fife,Dawn to Dusk,5.16,0,http://www.cityoffife.org/?p=city_departments&a=parks_and_recreation&b=city_parks,1,5 - Acre Park,5.16965097,5 - Acre Park, , , , , , , , , , , , , , , , , , , , , , , , , , ,0, ,No, ,5008.01867689117,225337.419213097
271,1869,Park,Local,150 Alder St E,Eatonville,98328,Town of Eatonville,Town of Eatonville,Dawn to Dusk,5.23,0,http://www.eatonville-wa.gov/node/18,1,Millpond Park,4.96224778,Millpond Park, , , , , , , , , , , , , , , , , , , , , , , , , , ,0, ,No, ,2736.12287659097,216154.66933149
272,1870,Park,Local,9702 Crescent Valley Road,Gig Harbor,98332,City of Gig Harbor,City of Gig Harbor,Dawn to Dusk,1.488,0,http://www.cityofgigharbor.net/page.php?id=699,1,BMX Park,1.48830566,BMX Park, , , , , , , , , , , , , , , , , , , , , , , , , , ,0, ,No, ,1345.83727929447,64830.3305281886
273,1871,Park,Local,8714 North Harborview Dr,Gig Harbor,98332,City of Gig Harbor,City of Gig Harbor,http://www.cityofgigharbor.net/page.php?id=699#Cushman Trail,1.372,0,http://www.cityofgigharbor.net/page.php?id=699,1,Donkey Creek Park,1.3990155,Donkey Creek Park, , , , , , , , , , , , , , , , , , , , , , , , , , ,0, ,No, ,1345.02893188344,60889.5537873724
274,1873,Park,Resource Conservancy,4009 harborview Drive,Gig Harbor,98332,City of Gig Harbor,City of Gig Harbor,Dawn to Dusk,0.82,0,http://www.cityofgigharbor.net/page.php?id=699,1,Austin Estuary Park,0.81241948,Austin Estuary Park, , , , , , , , , , , , , , , , , , , , , , , , , , ,0, ,No, ,951.160042685864,35388.8453516833
275,1874,Park,Local,18902 82nd St E,Bonney Lake,98391,City of Bonney Lake,City of Bonney Lake,Dawn to Dusk,3.8,0,http://www.citybonneylake.org/section_community/parks_recreation/city_parks.shtml,1,Viking Park,3.67541316,Viking Park, , , , , , , , , , , , , , , , , , , , , , , , , , ,0, ,No, ,2146.1857959859,160100.347356752
276,1875,Park,Undeveloped Sites,5615 Kopachuck Dr Nw,Gig Harbor,98335,Peninsula Metropolitan Park District,Peninsula Metropolitan Park District,,0,18.5,https://penmetparks.org/parks/kopachuck-heights/,1,Kopachuck Heights,18.42215125,Kopachuck Heights, , , , , ,yes, , , , , , , , , , , , , , , , , , , , ,18.5, ,no, ,3813.33180707613,802465.736359342
277,1876,Park,Resource Conservancy,6620 32nd St NW,Gig Harbor,98335,Peninsula Metropolitan Park District,Peninsula Metropolitan Park District,7 am to dusk,0,18.7,https://penmetparks.org/parks/harbor-family-park/,1,Harbor Family Park,18.74254565,Harbor Family Park, , , , , ,yes, , , , , , , , , , , , , , , , , , , , ,19, ,No, ,3826.8074293708,816415.860720695
278,1879,Skate Park,Local,251 S River Av,Buckley,98321,City of Buckley,City of Buckley,Dawn to Dusk,1.48,0,http://www.cityofbuckley.com/documents/skate_park_camera.html,1,Buckley Skate Park,1.36162941,Buckley Skate Park, , , , , , , , , , , , , , , , , , , , , , , , , , ,0, ,No, ,1261.19675724404,59312.3402348119
279,1889,Park,Resource Conservancy,1404 Evergreen Dr,Fircrest,98466,City of Fircrest,City of Fircrest,Dawn to Dusk,6.781,0, ,1,Thelma Gilmur Park,6.44098055,Thelma Gilmur Park, , , , , , , , , , , , , , , , , , , , , , , , , , ,0, ,No, ,3000.39269242581,280576.610730247
280,1891,Park,Local,3rd Street SW,South Prairie,98385,White River School District,Town of South Prairie,Dawn to Dusk,9.7,0,http://www.townofsouthprairie.com/parks.htm,1,Third Street Park,9.71962412,Third Street Park, , , , , , , , , , , , , , , , , , , , , , , , , , ,0, ,No, ,3186.48198669788,423385.12806557
281,1892,Park,Local,354 162 Hwy E,South Prairie,98385,Town of South Prairie,Town of South Prairie,Dawn to Dusk,2.15,0,http://www.townofsouthprairie.com/parks.htm,1,Veterans Park,2.16100295,Veterans Park, , , , , , , , , , , , , , , , , , , , , , , , , , ,0, ,No, ,1880.38031432191,94132.9016422569
282,1893,Park,Local,Military Rd and B St,Steilacoom,98388,Town of Steilacoom,Town of Steilacoom,Dawn to Dusk,0.826,0,http://www.townofsteilacoom.com/activities/parks_recreation.htm#cherrydale,1,Cherrydale Park,1.16510705,Cherrydale Park, , , , , , , , , , , , , , , , , , , , , , , , , , ,0, ,No, ,1419.18970979201,50747.8242912227
283,1894,Park,Special Use,2301 Worthington St,Steilacoom,98388,Town of Steilacoom,Town of Steilacoom,Dawn to Dusk,4.09,0,http://www.townofsteilacoom.com/activities/parks_recreation.htm#community_center,1,Community Center Park,4.09906423,Community Center Park, , , , , , , , , , , , , , , , , , , , , , , , , , ,0, ,No, ,1667.20618283167,178554.535626785
284,1895,Park,Local,Cormorant Dr and Chapman Lp,Steilacoom,98388,Town of Steilacoom,Town of Steilacoom,Dawn to Dusk,1.613,0,http://www.townofsteilacoom.com/activities/parks_recreation.htm#cormorant,1,Cormorant Park,1.61264276,Cormorant Park, , , , , , , , , , , , , , , , , , , , , , , , , , ,0, ,No, ,1058.36086430012,70280.638107697
285,1897,Park,Local,Union & Martin St,Steilacoom,98388,Town of Steilacoom,Town of Steilacoom,Dawn to Dusk,0.5,0,http://www.townofsteilacoom.com/activities/parks_recreation.htm#perkins,1,Perkins Park,0.52867293,Perkins Park, , , , , , , , , , , , , , , , , , , , , , , , , , ,0, ,No, ,612.11405243628,23028.9051545397
286,1899,Park,Local,Roe St,Steilacoom,98388,Town of Steilacoom,Town of Steilacoom,Dawn to Dusk,0.46,0,http://www.townofsteilacoom.com/activities/parks_recreation.htm#weber,1,Weber Court,0.50201605,Weber Court, , , , , , , , , , , , , , , , , , , , , , , , , , ,0, ,No, ,682.609863448689,21886.5300624168
287,1900,Park,Local,1306 69th St E,Auburn,98092,City of Auburn,City of Auburn,Dawn to Dusk,15,0,http://www.auburnwa.gov/community/parks/sunset_park.asp,1,Sunset Park,14.779093,Sunset Park, , , , , , , , , , , , , , , , , , , , , , , , , , ,0, ,No, ,3263.91741065919,643670.374147439
288,1961,Wildlife Habitat,Regional/Resource Cons.,100 NE Brown Farm Rd,Olympia,98516,US Fish and Wildlife,US Fish & Wildlife,The trails and Refuge are open from sunrise to sunset,1512.56,0,http://www.fws.gov/refuges/profiles/index.cfm?id=13529,1,Nisqually National Wildlife Refuge,1018.19032055,Nisqually National Wildlife Refuge, , , , , , , , , , , , , , , , , , , , , , , , , , ,0, ,No, ,61874.0032658685,44352224.9738711
289,1964,Park,Local,5701 Lakeland Hills Way SE,Auburn,98092,City of Auburn,City of Auburn,Dawn to Dusk,4,0,http://www.auburnwa.gov/community/parks/dorothy_bothell.asp,1,Dorothy Bothell Park,4.33377385,Dorothy Bothell Park, , , , , , , , , , , , , , , , , , , , , , , , , , ,0, ,No, ,3082.41847875637,188724.746692072
290,2642,Park,Undeveloped Sites,3124 67TH AV W,University Place, ,City of University Place,City of University Place,Dawn to Dusk (unless otherwise posted),0,9.5,http://cityofup.com/Media/file/ParksAndRec/WHERE%20ARE%20OUR%20PARKS%202011.pdf,1,Paradise Pond Park,9.73570635,Paradise Pond Park, , , , , , , , , , , , , , , , , , , , , , , , , , ,0, ,No, ,2605.79660399353,424085.644107735
291,2643,Park,Undeveloped Sites,Brookside Wy W,University Place,98466,City of University Place,City of University Place,Dawn to Dusk,0,2.7, ,1,Brookside Park,2.59019273,Brookside Park, , , , , , , , , , , , , , , , , , , , , , , , , , ,0, ,No, ,1449.7139039157,112815.782661312
293,2673,Park,Local,Orting Av NW,Orting,98360,City of Orting,City of Orting,Dawn to Dusk (unless otherwise posted),0,0, ,1,Whitehawk Park,3.97606306,Whitehawk Park, , , , , , , , , , , , , , , , , , , , , , , , , , ,0, ,No, ,2198.93731568991,173186.733473699
294,2675,Wildlife Habitat,Local,Williams Ct NW,Orting,98360,City of Orting,City of Orting,Dawn to Dusk (unless otherwise posted),0,0, ,1,Wetland in Village Green,40.18624388,Wetland in Village Green, , , , , , , , , , , , , , , , , , , , , , , , , , ,0, ,No, ,11257.0748726988,1750575.35887871
295,2676,Park,Linear Park,101 Washington Av N,Orting,98360,City of Orting,City of Orting,Dawn to Dusk (unless otherwise posted),1.38,0,http://www.cityoforting.org/Parks___Recreation.php,1,North Park,1.3840954,North Park, , , , , , , , , , , , , , , , , , , , , , , , , , ,0, ,No, ,1201.3571813626,60290.9430012588
296,2677,Park,Local,Rocky Road NE,Orting,98360,City of Orting,City of Orting,Dawn to Dusk (unless otherwise posted),0,0, ,1,Carbon River Landing,27.76822882,Carbon River Landing, , , , , , , , , , , , , , , , , , , , , , , , , , ,0, ,No, ,11700.4719713303,1209579.21208159
297,2679,Park,Local,Brown Wy SE,Orting,98360,City of Orting,City of Orting,Dawn to Dusk (unless otherwise posted),0,0, ,1,Rainier Meadows Park,4.21282266,Rainier Meadows Park, , , , , , , , , , , , , , , , , , , , , , , , , , ,0, ,No, ,3386.21525955603,183509.817011292
298,2680,Park,Local,945 Fawcett Av,Tacoma,98402,City of Tacoma,City of Tacoma, ,0,0, ,1,McCormick Park,0.43722606,McCormick Park, , , , , , , , , , , , , , , , , , , , , , , , , , ,0, ,No, ,557.589346949947,19045.4926820476
299,2762,Trail,Linear Park,Claussen Rd AI,Anderson Island,98303,Anderson Island Park District,Anderson Island Park District,7 am to 10:30 pm,0,0, ,1,Deweyert/Claussen Trail,1.95730863,Deweyert/Claussen Trail, , , , , , , , , , , , , , , , , , , , , , , , , , ,0, ,No, ,2715.66414081838,85260.0554784858
300,2763,Wildlife Habitat,TBD,109TH AV AI,Anderson Island,98303,Anderson Island Park District,Anderson Island Park District,7 am to 10:30 pm,0,10,http://www.andersonislandparks.org/Tom_s_Park__to_be_Named_.html,1,Tom's Park,11.42042985,Tom's Park, , , , , , , , , , , , , , , , , , , , , , , , , , ,0, ,No, ,3874.0992738555,497471.946228744
301,2764,Park,Local,10804 Eckenstam Johnson Rd AI,Anderson Island,98303,Anderson Island Park District,Anderson Island Park District,7 am to 10:30 pm,0,0,http://www.andersonislandparks.org/Tom_White_Park.html,1,Tom White Park & Old Schoolhouse,7.29511613,Tom White Park & Old Schoolhouse, , , , , , , , , , , , , , , , , , , , , , , , , , ,0, ,No, ,3590.39565452378,317773.984865726
302,2765,Park Under Construction,Undeveloped Sites,13616 94TH ST AI,Anderson Island,98303,Anderson Island Park District,Anderson Island Park District,7 am to 10:30 pm,0,5,http://www.andersonislandparks.org/Montalvo_Park.html,1,Montalvo Park,4.98940042,Montalvo Park, , , , , , , , , , , , , , , , , , , , , , , , , , ,0, ,No, ,1981.43938007582,217337.358382073
304,2767,Park,Resource Conservancy,55 Bella Bella Dr,Fox Island,98333,Peninsula Metropolitan Park District,Peninsula Metropolitan Park District,Dawn to Dusk,0,5.5,https://penmetparks.org/parks/demolay-sandspit-nature-preserve/,1,Demolay Sandspit Nature Preserve,4.4,Demolay Sandspit Nature Preserve, ,yes, ,yes, ,yes, , ,yes, , , , , , ,yes, , , , , , , , , , ,5.5, ,No, ,3448.70344110308,481849.697935929
305,2768,Wildlife Habitat,Resource Conservancy,716 9th Ave,Fox Island,98333,Fox Island Comunity and Recreation Association,Fox Island Comunity and Recreation Association,Dawn to Dusk,0,0,http://www.foxislandwa.net/nature_center.htm,1,Fox Island Nature Center,5.02962705,Fox Island Nature Center, , , , , , , , , , , , , , , , , , , , , , , , , , ,0, ,No, ,1986.73703024196,219089.662427215
306,2770,Park,Undeveloped Sites,South Prairie Rd E,Bonney Lake,98391,City of Bonney Lake,City of Bonney Lake,Dawn to Dusk,0,50, ,1,Bonney Lake Midtown Park,45.47284929,Bonney Lake Midtown Park, , , , , , , , , , , , , , , , , , , , , , , , , , ,0, ,No, ,6417.18255295997,1980789.35622318
307,2771,Park,Local,132 Mashell Ave N,Eatonville,98328,Town of Eatonville,Town of Eatonville,No hours set,0,0, ,1,Town Square,0.16766568,Town Square, , , , , , , , , , , , , , , , , , , , , , , , , , ,0, ,No, ,363.616739847165,7303.48054468541
308,2776,Park,Linear Park,401 Washington Ave SE,Orting,98360,City of Orting,City of Orting,Dawn to Dusk (unless otherwise posted),7.58,0,http://www.cityoforting.org/Parks___Recreation.php,1,Charter Park,7.54958918,Charter Park, , , , , , , , , , , , , , , , , , , , , , , , , , ,0, ,No, ,3751.46234190878,328858.76162081
309,2779,Park,Undeveloped Sites,5700 BLK 57TH AV W,University Place,98467,City of University Place,City of University Place,Currently undeveloped,0,14.98, ,1,Creekside Park,15.39807723,Creekside Park, , , , , , , , , , , , , , , , , , , , , , , , , , ,0, ,No, ,3378.61000445612,670737.574702416
310,2782,Park,Local,Eckenstam Johnson Rd,Anderson Island,98303,Anderson Island Park District,Anderson Island Park District, ,0,0, ,1,Jacobs Point Park,86.13242665,Jacobs Point Park, , , , , , , , , , , , , , , , , , , , , , , , , , ,0, ,No, ,10329.9936082743,3751913.60122224
311,152,Park,Regional,Between McNeil and Anderson Island,Anderson Island,98303,State of Washington,Washington State Parks,8 am to Dusk,0,10,http://www.parks.wa.gov/parks/?selectedpark=Eagle%20Island&subject=all,1,Eagle Island State Park,6.69771882,Eagle Island State Park, , , , , , , , , , , , , , , , , , , , , , , , , , ,0, ,No, ,2099.34809678191,291751.485399388
312,175,Park,Local,1400 S Sheridan Ave,Tacoma,98405,City of Tacoma,Metro Parks Tacoma,Dawn to Dusk,0.64,0,http://www.metroparkstacoma.org/ferry-park,1,Ferry Park,0.71560537,Ferry Park, , , , , , , , , , , , , , , , , , , , , , , , , , ,0, ,No, ,758.937579490428,31171.6269379319
314,237,Park,Local,Le Lou Wa Pl NE At East Side Dr NE,Tacoma,98422,Not Specified,Not Specified,Dawn to Dusk (unless otherwise posted),0.1598,0, ,1,Meeker Memorial,0.15983489,Meeker Memorial, , , , , , , , , , , , , , , , , , , , , , , , , , ,0, ,No, ,398.323908340024,6962.37840015991
315,263,Park,Regional,"Tahoma Woods, Star Route",Ashford,98304,U.S. Federal Government,U.S. Federal Government,Varies with Season,0,199580,http://www.nps.gov/MORA/index.htm,1,Mt. Rainier National Park,199580.268938,Mt. Rainier National Park, ,Yes,Yes,Yes,Yes,Yes,Yes,No,Yes,No,No,No,No,No,No,No,Yes,Yes,No,No,No,No,No,No,No,No,0,"Ascending to 14,410 feet above sea level, Mount Rainier stands as an icon in the Washington landscape. An active volcano, Mount Rainier is the most glaciated peak in the contiguous U.S.A., spawning five major rivers. Subalpine wildflower meadows ring the",Yes,Yes,431396.765182577,8693681741.13471
316,287,Park,Local,3100 N Proctor ST,Tacoma,98407,City of Tacoma,Metro Parks Tacoma,Dawn to Dusk,0.88,0,http://www.metroparkstacoma.org/puget-park,1,Puget Park,1.08884346,Puget Park, , , , , , , , , , , , , , , , , , , , , , , , , , ,0, ,No, ,926.484524253625,47429.8449104947
317,291,Trail,Linear Park,Runs along Puyallup River-Milwaukee Bridge to 7th St,Puyallup,98371,City of Puyallup,City of Puyallup,8 am to Dusk,1.2372,0,http://www.cityofpuyallup.org/services/parks-recreation/city-puyallup-parks/puyallup-riverwalk-trail/,1,Puyallup Riverwalk Trail,14.1900091,Puyallup Riverwalk Trail, , , , , , , , , , , , , , , , , , , , , , , , , , ,0, ,No, ,11467.9170168173,618114.326757118
318,1867,Park,Local,Union Av and Commericial St,Steilacoom,98388,Town of Steilacoom,Town of Steilacoom,Dawn to Dusk,0.18,0,http://www.townofsteilacoom.com/activities/parks_recreation.htm#byrd_mill,1,Byrd Mill Park,0.05838814,Byrd Mill Park, , , , , , , , , , , , , , , , , , , , , , , , , , ,0, ,No, ,236.498635814939,2543.38140900338
319,1868,Park,Special Use,Pacific and Lafayette St,Steilacoom,98388,Town of Steilacoom,Town of Steilacoom,Dawn to Dusk,0.275,0,http://www.townofsteilacoom.com/activities/parks_recreation.htm#charlies,1,Charlie's Park,0.35576284,Charlie's Park, , , , , , , , , , , , , , , , , , , , , , , , , , ,0, ,No, ,640.274597172923,15496.9628129681
320,1896,Park,Local,Queets St and Manitoba Av,Steilacoom,98388,Town of Steilacoom,Town of Steilacoom,Dawn to Dusk,0.293,0,http://www.townofsteilacoom.com/activities/parks_recreation.htm#manitoba,1,Manitoba Park,0.27592657,Manitoba Park, , , , , , , , , , , , , , , , , , , , , , , , , , ,0, ,No, ,560.11742767783,12019.3205216203
321,1898,Park,Local,Commercial and Wilkes,Steilacoom,98388,Town of Steilacoom,Town of Steilacoom,Dawn to Dusk,1,0,http://www.townofsteilacoom.com/activities/parks_recreation.htm#pioneer,1,Pioneer Park,1.05391331,Pioneer Park, , , , , , , , , , , , , , , , , , , , , , , , , , ,0, ,No, ,1088.91843085832,45908.306753652
322,2678,Park,Local,River Ave SE and Bridge St SE,Orting,98360,City of Orting,City of Orting,Dawn to Dusk (unless otherwise posted),0,0, ,1,Triangle Park- Orting,0.1939635,Triangle Park (Orting), , , , , , , , , , , , , , , , , , , , , , , , , , ,0, ,No, ,417.318965752869,8449.01248211296
323,1852,Trail,Linear Park,2626 Hollycroft Street,Gig Harbor,98335,City of Gig Harbor,City of Gig Harbor,Dawn to Dusk (unless otherwise posted),0.47,0,http://www.cityofgigharbor.net/page.php?id=699#Cushman Trail,1,Cushman Trailhead Park,6.46326618,Cushman Trailhead Park, , , , , , , , , , , , , , , , , , , , , , , , , , ,0, ,No, ,6510.99226811779,281538.770546855
324,1862,Park, ,Railroad Av, , ,Town of Wilkeson,Town of Wilkeson, ,0.29,0, ,1,Wilkeson Park Property,1.5699503,Wilkeson Park Property, , , , , , , , , , , , , , , , , , , , , , , , , , ,0, ,No, ,1643.6668556336,68431.7582696989
325,1861,Park,Local,Ridge View Dr,DuPont,98327,City of DuPont,City of DuPont,Dawn to Dusk,0.9,0,http://www.ci.dupont.wa.us/public-works/parks-recreation/city-parks.html,1,"Tract ""I"" Park",0.97244122,"Tract ""I"" Park", , , , , , , , , , , , , , , , , , , , , , , , , , ,0, ,No, ,1166.9812148434,42344.688720872
326,3116,Park,Local,Ridge View Place,DuPont,98327,City of DuPont,City of DuPont,Dawn to Dusk,0.33,0,http://www.ci.dupont.wa.us/public-works/parks-recreation/city-parks.html,1,Parkview Neighborhood Park,0.33270477,Parkview Neighborhood Park, , , , , , , , , , , , , , , , , , , , , , , , , , ,0, ,No, ,714.967156631345,14492.5655572058
327,3114,Park,Local,1610 Sequalitchew Dr,DuPont,98327,City of DuPont,City of DuPont,Dawn to Dusk,0.53,0,http://www.ci.dupont.wa.us/public-works/parks-recreation/city-parks.html,1,Creekside Neighborhood Park,0.56165111,Creekside Neighborhood Park, , , , , , , , , , , , , , , , , , , , , , , , , , ,0, ,No, ,1558.23769800907,24562.5621392817
328,3113,Park,Local,1280 Bell Hill Pl,DuPont,98327,City of DuPont,City of DuPont,Dawn to Dusk,0.43,0,http://www.ci.dupont.wa.us/public-works/parks-recreation/city-parks.html,1,Bell Hill Neighborhood Park,0.42764234,Bell Hill Neighborhood Park, , , , , , , , , , , , , , , , , , , , , , , , , , ,0, ,No, ,876.693987405866,18589.3207474661
329,3112,Park,Local,Bell Hill Pl,DuPont,98327,City of DuPont,City of DuPont,Dawn to Dusk,3.34,0,http://www.ci.dupont.wa.us/public-works/parks-recreation/city-parks.html,1,Bell Hill Community Park,3.34589393,Bell Hill Community Park, , , , , , , , , , , , , , , , , , , , , , , , , , ,0, ,No, ,2017.44705960409,145769.491146315
330,3115,Park,Local,3475 Hoffman Hill Blvd,DuPont,98327,City of DuPont,City of DuPont,Dawn to Dusk,1,0,http://www.ci.dupont.wa.us/public-works/parks-recreation/city-parks.html,1,Hoffman Hill Neighborhood Park,0.94967112,Hoffman Hill Neighborhood Park, , , , , , , , , , , , , , , , , , , , , , , , , , ,0, ,No, ,810.590579513185,41400.962047813
331,1862,Park, ,2605 Bronson Av,DuPont,98327,City of DuPont,City of DuPont,Dawn to Dusk,2.45,0, ,1,Edmond Village Park,2.44583971,Edmond Village Park, , , , , , , , , , , , , , , , , , , , , , , , , , ,0, ,No, ,2122.22317267491,106502.228504043
334,126,Park,County,2022 198th Ave E,Bonney Lake,98391,Pierce County,Pierce County Parks and Recreation Services,7:30 am - 8 pm from April through September,2,60,https://www.co.pierce.wa.us/1326/Lake-Tapps-Park,1,North Lake Tapps Park,134.56677284,North Lake Tapps Park, ,Yes,Yes,Yes,No,No,No,No,Yes,No,No,No,No,No,No,Yes,Yes,Yes,No,No,No,No,No,No,No,No,135.2,"This popular swimming and boat launch area is located on the north side of Lake Tapps. The 135-acre site is mostly wooded and undeveloped with the exception of parking areas, boat launch, and swimming beach along the waterfront.",Yes, ,16901.4192560754,5861726.55273361
335,202,Rec Area,County,9010 128th Street E,Puyallup,98373,Puyallup School District,Pierce County Parks and Recreation Services,6:30 am until dusk (unless otherwise posted). The gates are closed at 4:30 pm for the month of January.,81.16,0,https://www.co.pierce.wa.us/1325/Heritage-Recreation-Center,1,Heritage Recreation Center,41.40566189,Heritage Recreation Center, ,Yes,Yes,Yes,Yes,No,No,No,Yes,Yes,No,Yes,No,Yes,No,No,No,No,No,No,No,No,No,No,No,No,46.9,"Heritage is a popular world class sports complex that boasts baseball, soccer and multi-purpose fields in addition to remarkable trails where nature thrives in the heart of South Hill, Puyallup. Additionally, Heritage Recreation Center is linked to the S",Yes, ,8276.41846733641,1803623.61899597
337,184,Trail,Linear Park,SR165 E,Carbonado,98323,Town of Carbonado,Town of Carbonado,Dawn to Dusk,19.74,0,http://www.co.pierce.wa.us/2343/Wilkeson-to-Carbonado,1,Foothills Trail- Carbonado,20.37184759,Foothills Trail- Carbonado, ,No,No, ,No,Yes,No,No,No,No, ,No,No,No,No,No,No,No,No,No,No,No,No,No,No,No,0, ,No, ,18223.9568137599,887403.848146494
339,2774,Trail Head,Linear,13810 80th Street,Puyallup,98372,Pierce County,Pierce County Parks and Recreation Services,Dawn to Dusk (Unless otherwise posted),0,0,https://www.piercecountywa.org/1393/Trailheads,1,Foothills Trail- East Puyallup Trailhead,2.09037552,Foothills Trail- East Puyallup Trailhead, ,Yes,Yes,Yes,Yes,No,Yes,No,No,No,No,No,No,No,No,No,No,No,No,No,No,No,No,No,No,No,0,"The East Puyallup Trailhead features a restroom facility, kiosk, bicycle rack, equestrian hitching post and 23 parking spaces. ",Yes, ,1563.45068045498,67638.3494157394
340,2674,Trail,Linear Park,401 Washington Av SE,Orting,98360,City of Orting,City of Orting,Dawn to Dusk (unless otherwise posted),19,0,https://www.piercecountywa.org/2340/McMillin-to-Orting,1,Foothills Trail- McMillin through Orting,19.46269151,Foothills Trail- McMillin to Orting, ,Yes,Yes,Yes,Yes,No,Yes,No,No,No,No,No,No,No,No,No,Yes,No,No,No,No,No,No,No,No,No,0,"The McMillin Trailhead is a popular starting spot for bikers, skaters and stroller pushers. Most of this 2.3 mile section is parallel to SR 162.",Yes, ,33334.4355644892,932327.130125329
341,374,Trail,Linear, ,Orting,98360,Pierce County,Pierce County Parks and Recreation Services,Dawn to Dusk (unless otherwise posted),129.42,0,https://www.piercecountywa.org/2339/East-Puyallup-to-McMillin,1,Foothills Trail- Meeker to McMillin Section,143.10030846,Foothills Trail- Meeker to McMillin, ,Yes,Yes,Yes,Yes,No,Yes,No,No,No,No,No,No,No,No,No,No,No,No,No,No,No,No,No,No,No,0,The East Puyallup to McMillin section of the Foothills Trail is four miles of trail that winds through trees and farms and runs alongside an active railway.,Yes, ,52520.4078031375,6148394.91621093
342,375,Trail,Linear,Washington Ave SE,Orting,98360,Pierce County,City of Orting,Dawn to Dusk (unless otherwise posted),119.69,0,https://www.piercecountywa.org/2341/Orting-to-South-Prairie,1,Foothills Trail- Orting to South Prairie Section,125.78907556,Foothills Trail- Orting to South Prairie, ,Yes,Yes,Yes,Yes,No,Yes,No,Yes,No,No,No,No,No,No,No,Yes,No,No,No,No,No,No,No,No,No,0,"This diverse section of trail, at almost 11 miles, is the longest section of the Foothills route. There are three rest stops and all of them have been acquired through private gifts. This section includes a cattle farm and a buffalo ranch, but the real f",Yes, ,80692.2842146436,5479109.27239906
343,373,Trail,Linear, ,Orting,98360,Pierce County,Pierce County Parks and Recreation Services,Dawn to Dusk (unless otherwise posted),68,0,https://www.piercecountywa.org/2342/South-Prairie-to-Buckley,1,Foothills Trail- Buckley to South Prairie Section,69.13506995,Foothills Trail- South Prairie to Buckley, ,Yes,Yes,Yes,Yes,Yes,Yes,No,Yes,No,No,No,No,No,No,No,No,No,No,No,No,No,No,No,No,No,0,"This trail section extends from South Prairie Creek in the Town of South Prairie to Buckley. The main stem now stops at South Prairie, about three miles short of its planned end point on the edge of Buckley.",Yes, ,46712.2379442422,3011159.92964642
344,2760,Trail,Linear Park,Quinnon Ext Rd E,Wilkeson,98396,Town of Wilkeson,Town of Wilkeson,Dawn to Dusk (unless otherwise posted),0,9.42, ,1,Foothills Trail- Town of Wilkeson,9.7752299,Foothills Trail- Town of Wilkeson, ,No,No, ,Yes,No,No,No,No,No, ,No,No,No,No,No,No,No,No, ,No, ,No, , , ,0, ,No, ,12864.6809415361,425805.982532073
346,2775,Trail Head,Linear,1st St,South Prairie,98385,Pierce County,Pierce County Parks and Recreation Services,Dawn to Dusk (Unless otherwise posted),1.8,0,https://www.piercecountywa.org/2342/South-Prairie-to-Buckley,1,Foothills Trail- South Prairie Trailhead,2.02933167,Foothills Trail- South Prairie Trailhead, ,Yes,Yes,Yes,Yes,No,Yes,No,No,No,No,No,No,No,No,No,No,No,No,No,No,No,No,No,No,No,0,"The South Prairie Trail trailhead will have parking for 20 vehicles, plus an information kiosk and a sani-can enclosure. This section of the Foothills Trail will link the towns of Buckley to the east and Orting to the west.",Yes, ,3568.75331213083,88359.1717371607
352,390,Park,Local Park,10405 SR 302,Gig Harbor,98329,Key Pen Parks,Key Pen Parks,Daylight hours,39,34,https://www.keypenparks.com/gateway-park.html,1,Gateway Park,72,Gateway Park,,Yes,,Yes,,,Yes,,Yes,Yes,Yes,,,,,,,,,,,,,,,,72,,no,,7700.86800254551,3118829.20090271
356,389,Undeveloped,Resource Conservancy,10527 Wright Bliss Rd NW,Gig Harbor,98329,WA DNR,Key Pen Parks,Dawn to Dusk,,480,https://www.keypenparks.com/key-central-forest.html,1,Key Central Forest,480,Key Central Forest,,,,,,Yes,,,,,,,,,,,,,,,,,,,,,480,,no,,23976.5730337416,21149092.5539997
357,800,Park,Local,3401 8th Ave SE,Puyallup,98372,City of Puyallup,City of Puyallup,,18,,http://www.cityofpuyallup.org/1278/Van-Lierop-Park,1,Van Lierop Park,18.12,Van Lierop Park,,,,Y,Y,,,,,,,,,,,,,,,,,,,,,,18,,no,,4221.23279064565,757289.324783241
359,803,Park,Special Use,2120 14th Ave NW,Gig Harbor ,98335,Peninsula Metropolitan Park District,Peninsula Metropolitan Park District,Dawn to dusk,9,,https://penmetparks.org/parks/tubbys-trail-dog-park/,1,Tubby's Trail Dog Park,8.5,Tubby's Trail Dog Park,,yes,,yes,,,,,yes,,yes,,,,,,,,,,,,,,,,8.5,,no,,2879.3138985204,371392.450411231
360,804,Park,Special Use,10100 Bujajich Rd NW,Gig Harbor,98332,Peninsula Metropolitan Park District,Peninsula Metropolitan Park Distric,Dawn to dusk,15,60,https://penmetparks.org/parks/rotary-bark-park/,1,Rotary Bark Park,74.9,Rotary Bark Park,,yes,,,,yes,,,yes,,yes ,,,,,,,,,,,,,,,,75,,no,,9972.51077312178,3313227.07980807
361,805,Park,Special Use,13th Ave & Leschi Dr,Fox Island ,98333,Peninsula Metropolitan Park District,Peninsula Metropolitan Park District,dawn to dusk,0.3,,https://penmetparks.org/parks/cedrona-bay-boat-launch/,1,Cedrona Bay Boat Launch,0.2961,Cedrona Bay Boat Launch,,,,,,,,,,,,,,,,yes,yes,yes,,,,,,,,,0.3,,no,,523.660925099753,11947.5259048797
362,806,Park,Special Use,5003 Wollochet Dr NW,Gig Harbor ,98335,Peninsula Metropolitan Park District,Peninsula Metropolitan Park District,,9,,https://penmetparks.org/parks/peninsula-gardens/,1,Peninsula Gardens,8.89,Peninsula Gardens,,yes,,yes,,,,yes,yes,,,,,,,,,,,,,,,,,,9,,no,,3634.20381329506,378530.155000667
